ref,name,address,lat,long,description,,,,,,,
1,"Державне науково-виробниче підприємство ""Картографія""","м. Київ, вул. Попудренка, 54",50.460331,30.635121,"<div align=""center""><b>Державне науково-виробниче підприємство ""Картографія""</b></div>
<div align=""center""><i>Контакти</i></div>
<u>Поштовий індекс:</u> 02094<br>
<u>Адреса:</u> м. Київ, вул. Попудренка, 54<br>
<u>Телефони:</u> +38(044)292-40-33<br>
<a href=""http://www.ukrmap.com.ua/"" target=""_blank"">Офіційна веб-сторінка</a><br>
<u>E-mail:</u> admin@ukrmap.com.ua<br>",,,,,,,
2,"Державне підприємство ""Західгеодезкартографія""","м. Львів, вул. Хмельницького, 120",49.854658 ,24.044716,"<div align=""center""><b>Державне підприємство ""Західгеодезкартографія""</b></div>
<div align=""center""><i>Контакти</i></div>
<u>Поштовий індекс:</u> 79024<br>
<u>Адреса:</u> м. Львів, вул. Хмельницького, 120<br>
<u>Телефони:</u> (032)252-03-21, (032)298-63-72<br>
<u>E-mail:</u> geodezija@gal.ukrpack.net<br>",,,,,,,
3,"Державне підприємство ""Закарпатгеодезцентр""","м. Мукачево, вул. Грушевського, 39/11",48.445563,22.722639,"<div align=""center""><b>Державне підприємство ""Закарпатгеодезцентр""</b></div>
<div align=""center""><i>Контакти</i></div>
<u>Поштовий індекс:</u> 89600<br>
<u>Адреса:</u> Закарпатська область, м. Мукачево, вул.Грушевського, 39\11<br>
<u>Телефони:</u> (3803131)38757, (3803131)55041, (3803131)32313<br>
<a href=""http://www.zakgeo.com.ua/"" target=""_blank"">Офіційна веб-сторінка</a><br>
<u>E-mail:</u> geo@geodez.mk.uzhgorod.ua, geo@zakgeo.com.ua<br>",,,,,,,
4,"Державне науково-виробниче підприємство ""Укрінжгеодезія""","
м. Київ, Новопечерський пров., 3",50.422027,30.527028,"<div align=""center""><b>Державне науково-виробниче підприємство ""Укрінжгеодезія""</b></div>
<div align=""center""><i>Контакти</i></div>
<u>Поштовий індекс:</u> 01042<br>
<u>Адреса:</u> м. Київ, Новопечерський пров., 3, корпус 2<br>
<u>Телефони:</u> 044-528-74-24, 044-528-72-35<br>
<a href=""http://www.ukrgeo.com/"" target=""_blank"">Офіційна веб-сторінка</a><br>
<u>E-mail:</u> sekretar@ukrgeo.com, admin@ukrgeo.com<br>",,,,,,,
5,"Державне підприємство ""Укркартгеофонд""","
м. Київ, Новопечерський пров., 3",50.422066,30.526897,"<div align=""center""><b>Державне підприємство ""Укркартгеофонд""</b></div>
<div align=""center""><i>Контакти</i></div>
<u>Поштовий індекс:</u> 01042<br>
<u>Адреса:</u> м. Київ, Новопечерський пров., 3, корпус 2<br>
<u>Телефони:</u> 044-529-25-10, 044-521-14-73<br>
<u>E-mail:</u> ukrgeofond@i.ua<br>",,,,,,,
6,"Державне підприємство ""УкрДАГП""","м. Київ, Червоноармійська вул., 69",50.428679,30.516435,"<div align=""center""><b>Державне підприємство ""УкрДАГП""</b></div>
<div align=""center""><i>Контакти</i></div>
<u>Поштовий індекс:</u> 03150<br>
<u>Адреса:</u> м. Київ, Червоноармійська вул., 69<br>
<u>Телефони:</u> 044-289-43-20, 044-226-33-09<br>
<a href=""  http://www.ukrdagp.com/"" target=""_blank"">Офіційна веб-сторінка</a><br>
<u>E-mail:</u> ukrdgp@Ln.ua, info@ukrdagp.com<br>",,,,,,,
7,"Державне підприємство ""Укргеоінформ""","м. Київ, вул. Попудренка, 54",50.459997,30.635008,"<div align=""center""><b>Державне підприємство ""Укргеоінформ""</b></div>
<div align=""center""><i>Контакти</i></div>
<u>Поштовий індекс:</u> 02660<br>
<u>Адреса:</u> м. Київ, вул. Попудренка, 54<br>
<u>Телефони:</u> +380(44)296-60-51, +380(44)292-02-00, +380(44)494-37-45<br>
<u>E-mail:</u> ukrgeoinform@nbi.com.ua<br>",,,,,,,
8,"Київське державне підприємство ""Київгеоінформатика""","м. Київ, вул. Попудренка, 55",50.460337,30.635212,"<div align=""center""><b>Київське державне підприємство ""Київгеоінформатика""</b></div>
<div align=""center""><i>Контакти</i></div>
<u>Поштовий індекс:</u> 02660<br>
<u>Адреса:</u> м. Київ, вул. Попудренка, 54<br>
<u>Телефони:</u> (044)292-51-66, 296-60-12<br>
<a href=""http://kgi.org.ua/"" target=""_blank"">Офіційна веб-сторінка</a><br>
<u>E-mail:</u> info@kgi.org.ua<br>",,,,,,,
9,"Державне підприємство ""Поліськгеодезкартографія""","м. Житомир, вул. Монтана, 18",50.266428,28.675197,"<div align=""center""><b>Державне підприємство ""Поліськгеодезкартографія""</b></div>
<div align=""center""><i>Контакти</i></div>
<u>Поштовий індекс:</u> 10029<br>
<u>Адреса:</u> м. Житомир, вул. Монтана, 18<br>
<u>Телефони:</u> (0412)418196, (0412)367294<br>
<a href=""http://pgkzhytomyr.narod.ru/"" target=""_blank"">Офіційна веб-сторінка</a><br>
<u>E-mail:</u> gontchar@zt.ukrtel.net<br>",,,,,,,
10,"Державне підприємство ""Поділлягеодезкартографія""","м. Вінниця, Келецька вул., 63",49.224817,28.415133,"<div align=""center""><b>Державне підприємство ""Поділлягеодезкартографія""</b></div>
<div align=""center""><i>Контакти</i></div>
<u>Поштовий індекс:</u> 21027<br>
<u>Адреса:</u> м. Вінниця, Келецька вул., 63<br>
<u>Телефони:</u> +380043246-47-25<br>
<a href=""http://podillyageo.prom.ua/"" target=""_blank"">Офіційна веб-сторінка</a><br>
<u>E-mail:</u> podgeokart@ukrpost.ua<br>",,,,,,,
11,"Державне науково-виробниче підприємство ""Геосистема""","м. Вінниця, вул. 600-річчя, 25",49.220181,28.427250,"<div align=""center""><b>Державне науково-виробниче підприємство ""Геосистема""</b></div>
<div align=""center""><i>Контакти</i></div>
<u>Поштовий індекс:</u> 21027<br>
<u>Адреса:</u> м. Вінниця, вул. 600-річчя, 25<br>
<u>Телефони:</u> (0432)46-65-19,46-47-71 <br>
<a href=""http://www.vingeo.com/"" target=""_blank"">Офіційна веб-сторінка</a><br>
<u>E-mail:</u> info@vingeo.com<br>",,,,,,,
12,"Державне підприємство ""Запоріжгеоінформ""","м. Запоріжжя, вул. Артема, 73",47.817106,35.172316,"<div align=""center""><b>Державне підприємство ""Запоріжгеоінформ""</b></div>
<div align=""center""><i>Контакти</i></div>
<u>Поштовий індекс:</u> 69002<br>
<u>Адреса:</u> м. Запоріжжя, вул. Артема, 73<br>
<u>Телефони:</u> 0-617-87-52-80, 0-612-63-72-70<br>
<u>E-mail:</u> zpgeoinform@rambler.ru<br>",,,,,,,
13,"Державне підприємство ""Східгеоінформ""","м. Харків, вул. Іванова, 27",50.002880,36.241975,"<div align=""center""><b>Державне підприємство ""Східгеоінформ""</b></div>
<div align=""center""><i>Контакти</i></div>
<u>Поштовий індекс:</u> 61002<br>
<u>Адреса:</u> м. Харків, вул. Іванова, 27<br>
<u>Телефони:</u> +38(057)700-53-70, 700-54-32<br>
<u>E-mail:</u> eastgeo@ukrpost.ua<br>",,,,,,,
14,"Державне підприємство ""Донбасгеоінформ""","м. Артемівськ, вул. Комсомольська, 24",48.586002,37.995395,"<div align=""center""><b>Державне підприємство ""Донбасгеоінформ""</b></div>
<div align=""center""><i>Контакти</i></div>
<u>Поштовий індекс:</u> 84500<br>
<u>Адреса:</u> Донецька область, м. Артемівськ, вул. Комсомольська, 24<br>
<u>Телефони:</u> 0-627-42-25-58, 0-627-42-25-52<br>
<u>E-mail:</u> dgi@artnet.dn.ua<br>",,,,,,,
15,"Державне підприємство ""Азовінжгеодезія""","
м. Маріуполь, вул.Зелінского 87",47.096243,37.516548,"<div align=""center""><b>Державне підприємство ""Азовінжгеодезія""</b></div>
<div align=""center""><i>Контакти</i></div>
<u>Поштовий індекс:</u> 87548<br>
<u>Адреса:</u> Донецька обл., м. Маріуполь, вул.Зелінского 87<br>
<u>Телефони:</u> +380(629)34-62-17<br>
<u>E-mail:</u> vgeo@ukr.net<br>",,,,,,,
16,"Державне підприємство ""Севгеоцентр""","АР Крим, м. Севастополь, вул. Очаковців, 50",44.602777,33.520782,"<div align=""center""><b>Державне підприємство ""Севгеоцентр""</b></div>
<div align=""center""><i>Контакти</i></div>
<u>Поштовий індекс:</u> 69002<br>
<u>Адреса:</u> АР Крим, м. Севастополь, вул. Очаковців, 50<br>
<u>Телефони:</u> 0-692-54-85-70<br>
<u>E-mail:</u> sevgeo@yandex.ru<br>",,,,,,,
17,"Державне підприємство ""Укргеодезмарк""","м. Київ, вул. Прорізна, 8",50.448571,30.520199,"<div align=""center""><b>Державне підприємство ""Укргеодезмарк""</b></div>
<div align=""center""><i>Контакти</i></div>
<u>Адреса:</u> м. Київ, вул. Прорізна, 8<br>
<u>Телефони:</u> 0-442-79-48-74, 0-442-78-61-56<br>
<u>E-mail:</u> geodezmark@metrobud.kiev.ua<br>",,,,,,,
18,Геотоп,"м. Київ, вул. Попудренка, 52",50.460012,30.634048,"<div align=""center""><b>Геотоп</b></div>
<div align=""center""><i>Контакти</i></div>
<u>Адреса:</u> м. Київ, вул. Попудренка, 52, 3 поверх, офіс 317<br>
<u>Телефони:</u> 097-891-01-18, (044) 337-40-38<br>
<a href=""http://geodez.com.ua/"" target=""_blank"">Офіційна веб-сторінка</a><br>
<u>E-mail:</u> topogeo@ukr.net<br>",,,,,,,
19,"Науково-виробниче підприємство ""Українська геодезична компанія""","м. Київ, вул. Василя Верховинця, 10",50.435412,30.396253,"<div align=""center""><b>Науково-виробниче підприємство ""Українська геодезична компанія""</b></div>
<div align=""center""><i>Контакти</i></div>
<u>Поштовий індекс:</u> 03148<br>
<u>Адреса:</u> м. Київ, вул. Василя Верховинця, 10<br>
<u>Телефони:</u> +38(044)405-31-00, (044)594-08-34, (044)276-71-33<br>
<a href=""http://www.ugeo.com.ua/"" target=""_blank"">Офіційна веб-сторінка</a><br>
<u>E-mail:</u> kvn@ugeo.com.ua<br>",,,,,,,
20,Geoizyiskaniya,"Київська область, Бориспільський район, с. Мала Олександрівка, вул. Лісова, 54",50.394143,30.822069,"<div align=""center""><b>Geoizyiskaniya</b></div>
<div align=""center""><i>Контакти</i></div>
<u>Адреса:</u> Київська область, Бориспільський район, с. Мала Олександрівка, вул. Лісова, 54<br>
<u>Телефони:</u> +38 (097) 9511029, +38 (063) 9156241<br>
<a href=""http://geoizyiskaniya.com.ua/"" target=""_blank"">Офіційна веб-сторінка</a><br>
<u>E-mail:</u> geoizyiskaniya@gmail.com<br>",,,,,,,
21,ГЕОБУРСЕРВИС,"м. Київ, просп. Перемоги, 96",50.458478,30.397947,"<div align=""center""><b>ГЕОБУРСЕРВИС</b></div>
<div align=""center""><i>Контакти</i></div>
<u>Адреса:</u> м. Київ, просп. Перемоги, 96<br>
<u>Телефони:</u> +38-098-888-6-777<br>
<a href=""http://www.gbs-c.com.ua/"" target=""_blank"">Офіційна веб-сторінка</a><br>
<u>E-mail:</u> gbsgbs@ya.ru<br>",,,,,,,
22,Geodeziya.kiev.ua,"
м. Київ, бул. Ромена Роллана, 7",50.432317,30.368903,"<div align=""center""><b>Geodeziya.kiev.ua</b></div>
<div align=""center""><i>Контакти</i></div>
<u>Адреса:</u> м. Київ, бул. Ромена Роллана, 7<br>
<u>Телефони:</u> (097) 087-70-49, (093) 092-13-41, (044) 274-26-18<br>
<a href=""http://geodeziya.kiev.ua/"" target=""_blank"">Офіційна веб-сторінка</a><br>
<u>E-mail:</u> box@geodeziya.kiev.ua<br>",,,,,,,
23,ГІЛЬДІЯ ІНЖИНІРИНГ,"м. Київ, вул. Хрещатик, 44",50.443917,30.520381,"<div align=""center""><b>Гільдія Інжиніринг</b></div>
<div align=""center""><i>Контакти</i></div>
<u>Адреса:</u> м. Київ, вул. Хрещатик, 44<br>
<u>Телефони:</u> 097-572-46-57, 095-061-50-58, 063-179-86-45, 044-221-49-96<br>
<a href=""http://geotop.com.ua/index_ua.php"" target=""_blank"">Офіційна веб-сторінка</a><br>
<u>E-mail:</u> a@geotop.com.ua<br>",,,,,,,
24,ПЛАНЕТА-ГЕО,"м. Київ, просп. Визволителів, 1",50.455539,30.605275,"<div align=""center""><b>Планета-Гео</b></div>
<div align=""center""><i>Контакти</i></div>
<u>Поштовий індекс:</u> 02125<br>
<u>Адреса:</u> м. Київ, просп. Визволителів, 1<br>
<u>Телефони:</u> +38 (044) 492 85 94; 067-230-31-54<br>
<a href=""http://geo.planeta.ua/"" target=""_blank"">Офіційна веб-сторінка</a><br>
<u>E-mail:</u> geo@planeta.ua, planeta-geo@ukr.net<br>",,,,,,,
25,МагистральБудПроект,"м. Київ, вул. Маршала Тимошенка, 21",50.513211,30.494067,"<div align=""center""><b> МагистральБудПроект</b></div>
<div align=""center""><i>Контакти</i></div>
<u>Адреса:</u> м. Київ, вул. Маршала Тимошенка, 21<br>
<u>Телефони:</u> (067)239-78-96<br>
<a href=""http://www.mbp.kiev.ua/"" target=""_blank"">Офіційна веб-сторінка</a><br>
<u>E-mail:</u> Kosta_@bigmir.net, Kosta1344@gmail.com<br>",,,,,,,
26,"Експертний центр ""Земсервисгруп""","м. Київ, вул. Народного Ополчення, 1",50.422972,30.459208,"<div align=""center""><b> Експертний центр ""Земсервисгруп""</b></div>
<div align=""center""><i>Контакти</i></div>
<u>Адреса:</u> м. Київ, вул. Народного Ополчення, 1, бізнес центр ""АртКапитал"", офіс № 423<br>
<u>Телефони:</u> (O44)228-82-99, (O97)952-75-95, (050)934-25-55 <br>
<a href=""http://zemservice.kiev.ua/"" target=""_blank"">Офіційна веб-сторінка</a><br>
<u>E-mail:</u> 5555522@gmail.com<br>",,,,,,,
27,Промгеопроект,"м. Київ, вул. Марини Раскової, 21",50.442400,30.608476,"<div align=""center""><b>Промгеопроект</b></div>
<div align=""center""><i>Контакти</i></div>
<u>Поштовий індекс:</u> 02002<br>
<u>Адреса:</u> м. Київ, вул. Марини Раскової, 21<br>
<u>Телефони:</u> +38(044)466-49-29<br>
<a href=""http://www.promgeo.kiev.ua/"" target=""_blank"">Офіційна веб-сторінка</a><br>
<u>E-mail:</u> r_semchuk@promgeo.kiev.ua<br>",,,,,,,
28,Дельта,"м. Київ, вул. Лютеранська, 27-29",50.443005,30.528942,"<div align=""center""><b>Дельта</b></div>
<div align=""center""><i>Контакти</i></div>
<u>Адреса:</u> м. Київ, вул. Лютеранська, 27-29, офіс 25<br>
<u>Телефони:</u> (067)658-50-44<br>
<a href=""http://land.kiev.ua/"" target=""_blank"">Офіційна веб-сторінка</a><br>
<u>E-mail:</u> office@land.kiev.ua<br>",,,,,,,
29,ГЕОЦЕНТРПРОЕКТ,"м. Київ, просп. Леся Курбаса, 2Б",50.432811,30.394415,"<div align=""center""><b>ГеоЦентрПроект</b></div>
<div align=""center""><i>Контакти</i></div>
<u>Поштовий індекс:</u> 03148<br>
<u>Адреса:</u> м. Київ, просп. Леся Курбаса, 2Б, НПП ""Сатурн""<br>
<u>Телефони:</u> (044)247-19-01<br>
<a href=""http://www.geocentr.kiev.ua/"" target=""_blank"">Офіційна веб-сторінка</a><br>
<u>E-mail:</u> geocenter@svitonline.com<br>",,,,,,,
30,Бучанське земельно-кадастрове бюро,"Київська обл., м.Ірпінь, вул.Шевченка, 3",50.519462,30.246133,"<div align=""center""><b>Бучанське земельно-кадастрове бюро</b></div>
<div align=""center""><i>Контакти</i></div>
<u>Поштовий індекс:</u> 08200<br>
<u>Адреса:</u> Київська обл., м.Ірпінь, вул.Шевченка, 3<br>
<u>Телефони:</u> (067)239-78-96<br>
<a href=""http://zkb.com.ua/"" target=""_blank"">Офіційна веб-сторінка</a><br>",,,,,,,
31,Геосфера,"
м. Київ, бул. Ромена Роллана, 7",50.432365,30.368706,"<div align=""center""><b>Геосфера</b></div>
<div align=""center""><i>Контакти</i></div>
<u>Адреса:</u> м. Київ, бул. Ромена Роллана, 7, офіс 205<br>
<u>Телефони:</u> (044)274-26-18, (067)595-02-03, (063)750-80-44<br>
<a href=""http://geosfera.com.ua/"" target=""_blank"">Офіційна веб-сторінка</a><br>
<u>E-mail:</u> pochta@geosfera.com.ua<br>",,,,,,,
32,UkrTrackLand,"м. Київ, Кудрявський узвіз, 5Б",50.461016,30.495738,"<div align=""center""><b>UkrTrackLand</b></div>
<div align=""center""><i>Контакти</i></div>
<u>Поштовий індекс:</u> 04053<br>
<u>Адреса:</u> м. Київ, Кудрявський узвіз, 5Б, офіс 317<br>
<u>Телефони:</u> +38(044)592-00-77, +38(096)512-22-22, +38(067)592-00-77<br>
<a href=""http://ukrtrackland.com.ua/"" target=""_blank"">Офіційна веб-сторінка</a><br>
<u>E-mail:</u> geo@ukrtrackland.com.ua<br>",,,,,,,
33,Деметра.5,"м. Київ, вул. Артема 60",50.456965,30.489943,"<div align=""center""><b>Деметра.5</b></div>
<div align=""center""><i>Контакти</i></div>
<u>Поштовий індекс:</u> 04050<br>
<u>Адреса:</u> м. Київ, вул. Артема 60 (у будівлі ВАТ «Інститут транспорту нафти», оф 405)<br>
<u>Телефони:</u> (044) 390-71-26, (044) 495-28-29, (044) 484-60-12<br>
<a href=""http://www.demetra5.kiev.ua/"" target=""_blank"">Офіційна веб-сторінка</a><br>
<u>E-mail:</u> d5@demetra5.kiev.ua, aspc@antares-spc.com.ua<br>",,,,,,,
34,ВВОСС,"с. Софіївська Борщагівка, Києво-Святошинський р-н, Київська область
вул. Київська, 24",50.408484,30.381086,"<div align=""center""><b>ВВОСС</b></div>
<div align=""center""><i>Контакти</i></div>
<u>Поштовий індекс:</u> 02094<br>
<u>Адреса:</u> с. Софіївська Борщагівка, Києво-Святошинський р-н, Київська область
вул. Київська, 24, оф. 25 (4 поверх)<br>
<u>Телефони:</u> (044)200-17–43, (067)728-54-41<br>
<a href=""http://геодезія.com.ua/"" target=""_blank"">Офіційна веб-сторінка</a><br>
<u>E-mail:</u> vvoss@ukr.net<br>",,,,,,,
35,Инженерстройпроект,"м. Київ, вул. Академіка Туполєва, 12М",50.465772,30.396635,"<div align=""center""><b>Инженерстройпроект</b></div>
<div align=""center""><i>Контакти</i></div>
<u>Поштовий індекс:</u> 02094<br>
<u>Адреса:</u> м. Київ, вул. Академіка Туполєва, 12М<br>
<u>Телефони:</u> +38(044)500-49-32<br>
<a href=""http://inbud.kiev.ua/"" target=""_blank"">Офіційна веб-сторінка</a><br>
<u>E-mail:</u> info@inbud.kiev.ua/<br>",,,,,,,
36,ГЕО-МАКС,"м. Київ, вул. Тургенєвська, 38",50.451270,30.492274,"<div align=""center""><b>ГЕО-МАКС</b></div>
<div align=""center""><i>Контакти</i></div>
<u>Поштовий індекс:</u> 02094<br>
<u>Адреса:</u> м. Київ, вул. Тургенєвська, 38, оф.212<br>
<u>Телефони:</u> +38(044)284-04-94<br>
<a href=""http://www.gmax.com.ua/"" target=""_blank"">Офіційна веб-сторінка</a><br>
<u>E-mail:</u> info@gmax.com.ua<br>",,,,,,,
37,БУРВОДСЕРВІС,"м. Львів, вул. Зелена 145/15",49.816972,24.063699,"<div align=""center""><b>БУРВОДСЕРВІС</b></div>
<div align=""center""><i>Контакти</i></div>
<u>Поштовий індекс:</u> 79026<br>
<u>Адреса:</u> м. Львів, вул. Зелена 145/15<br>
<u>Телефони:</u> 032-241-80-86, 067-671-14-38, 032-241-80-85<br>
<a href=""http://bvs.lviv.ua/"" target=""_blank"">Офіційна веб-сторінка</a><br>
<u>E-mail:</u> burvodservis@ukr.net<br>",,,,,,,
38,Геотехнічний Інститут,"м. Львів, вул. Перфецького, 23",49.813447,23.986924,"<div align=""center""><b>Геотехнічний Інститут</b></div>
<div align=""center""><i>Контакти</i></div>
<u>Поштовий індекс:</u> 79053<br>
<u>Адреса:</u> м. Львів, вул. Перфецького, 23<br>
<u>Телефони:</u> (032)2949757, (032)2949758<br>
<u>E-mail:</u> geo-tex@svitonline.com<br>",,,,,,,
39,МОНІТОРИНГ,"м. Львів, вул. Академіка Богомольця, 9/115",49.837718,24.036319,"<div align=""center""><b>Моніторинг</b></div>
<div align=""center""><i>Контакти</i></div>
<u>Поштовий індекс:</u> 79005<br>
<u>Адреса:</u> м. Львів, вул. Академіка Богомольця, 9/115<br>
<u>Телефони:</u> (032)2257881, (050)3173302, (097)6000901<br>
<a href=""http://monitoring.lviv.ua/"" target=""_blank"">Офіційна веб-сторінка</a><br>
<u>E-mail:</u> vomonitoring@ukr.net<br>",,,,,,,
40,НАВГЕОТЕХ,"м. Львів, вул. Героїв УПА, 73, корпус 5а",49.829049,23.995071,"<div align=""center""><b>НавГеоТех</b></div>
<div align=""center""><i>Контакти</i></div>
<u>Поштовий індекс:</u> 79015<br>
<u>Адреса:</u> м. Львів, вул. Героїв УПА, 73, корпус 5а<br>
<u>Телефони:</u> (032)2325495, (032)2325416<br>
<a href=""http://navgeotech.com/"" target=""_blank"">Офіційна веб-сторінка</a><br>
<u>E-mail:</u>  office@navgeotech.com<br>",,,,,,,
41,ГІЛЬДІЯ ІНЖИНІРИНГ,"м. Львів, вул. Богдана Хмельницького, 176",49.861837,24.051542,"<div align=""center""><b>Гільдія Інжиніринг</b></div>
<div align=""center""><i>Контакти</i></div>
<u>Адреса:</u> м. Львів, вул. Богдана Хмельницького, 176<br>
<u>Телефони:</u> (097)5724657<br>
<a href=""http://geotop.com.ua/index_ua.php"" target=""_blank"">Офіційна веб-сторінка</a><br>
<u>E-mail:</u> a@geotop.com.ua<br>",,,,,,,
42,Орендне підприємство Львівське обласне проектно-виробниче архітектурно-планувальне бюро,"м. Львів, вул. Пекарська, 21",49.838176,24.040499,"<div align=""center""><b>Орендне підприємство Львівське обласне проектно-виробниче архітектурно-планувальне бюро</b></div>
<div align=""center""><i>Контакти</i></div>
<u>Адреса:</u> м. Львів, вул. Пекарська, 21<br>
<u>Телефони:</u> (032)276-18-39, (032)276-37-76, (032)276-18-16<br>
<u>E-mail:</u> APB3@yandex.ru<br>",,,,,,,
43,Ордо Плюс,"м. Львів, просп. В`ячеслава Чорновола, 43А",49.853996,24.022383,"<div align=""center""><b>Ордо Плюс</b></div>
<div align=""center""><i>Контакти</i></div>
<u>Адреса:</u> м. Львів, просп. В`ячеслава Чорновола, 43А<br>
<u>Телефони:</u> +38(032)232-41-02<br>
<u>E-mail:</u> ordoplus@ukr.net<br>",,,,,,,
44,Базис плюс,"м. Львів, вул. Литвиненка, 3",49.813711,24.038116,"<div align=""center""><b>Базис плюс</b></div>
<div align=""center""><i>Контакти</i></div>
<u>Адреса:</u> м. Львів, вул. Литвиненка, 3, оф. 12<br>
<u>Телефони:</u> (050)625-47-84, (032)244-01-95<br>",,,,,,,
45,Геовіват,"м. Львів, вул. Карпінського, 6",49.836013,24.012349,"<div align=""center""><b>Геовіват</b></div>
<div align=""center""><i>Контакти</i></div>
<u>Адреса:</u> м. Львів, вул. Карпінського, 6, оф. 516<br>
<u>Телефони:</u> (067)584-13-99, (032)232-52-13<br>",,,,,,,
46,Інститут геоінформаційних систем,"м. Львів, вул. Володимира Винниченка, 1",49.838997,24.035271,"<div align=""center""><b>Інститут геоінформаційних систем</b></div>
<div align=""center""><i>Контакти</i></div>
<u>Поштовий індекс:</u> 79008<br>
<u>Адреса:</u> м. Львів, вул. Володимира Винниченка, 1<br>
<u>Телефони:</u> (032)2367038<br>
<u>E-mail:</u> igis@ukr.net<br>",,,,,,,
47,Картограф,"м. Львів, вул. Личаківська, 84, оф. 25",49.838164,24.055243,"<div align=""center""><b>Картограф</b></div>
<div align=""center""><i>Контакти</i></div>
<u>Адреса:</u> м. Львів, вул. Личаківська, 84, оф. 25<br>
<u>Телефони:</u> 032)275-90-00, (032)225-77-86<br>",,,,,,,
48,ГеоБудСтандарт,"м. Львів, пл. Ринок, 18",49.840910,24.031923,"<div align=""center""><b>ГеоБудСтандарт</b></div>
<div align=""center""><i>Контакти</i></div>
<u>Поштовий індекс:</u> 79015<br>
<u>Адреса:</u> м. Львів, пл. Ринок, 18, офіс 1<br>
<u>Телефони:</u> (032)236-72-81<br>
<a href=""http://www.gbs.lviv.ua/"" target=""_blank"">Офіційна веб-сторінка</a><br>
<u>E-mail:</u> gbs@mis.lviv.ua <br>",,,,,,,
49,Експертна оцінка,"м. Львів, вул. Івана Франка, 78",49.829664,24.031042,"<div align=""center""><b>Експертна оцінка</b></div>
<div align=""center""><i>Контакти</i></div>
<u>Адреса:</u> м. Львів, вул. Івана Франка, 78<br>
<u>Телефони:</u> (067)14-22-914, (093)249-32-69<br>",,,,,,,
50,Ингер-Град,"м. Львів, вул. Героїв УПА, 72",49.831781,23.997490,"<div align=""center""><b>Ингер-Град</b></div>
<div align=""center""><i>Контакти</i></div>
<u>Адреса:</u> м. Львів, вул. Героїв УПА, 72, Бізнес-центр ""Технопарк"" корпус 1<br>
<u>Телефони:</u> 032-253-2-077, 067-910-77-33<br>
<a href=""http://www.inger-grad.com/"" target=""_blank"">Офіційна веб-сторінка</a><br>
<u>E-mail:</u> ingergrad.lvov@gmail.com<br>",,,,,,,
51,ГІЛЬДІЯ ІНЖИНІРИНГ,"м. Дніпропетровськ, вул. наб. В.І. Леніна, 15А",48.471286 ,35.046253,"<div align=""center""><b>Гільдія Інжиніринг</b></div>
<div align=""center""><i>Контакти</i></div>
<u>Поштовий індекс:</u> 49000<br>
<u>Адреса:</u> м. Дніпропетровськ, вул. наб. В.І. Леніна, 15А, офіс 65, 4-й поверх<br>
<u>Телефони:</u> (097)5724657, (056)767-49-47<br>
<a href=""http://geotop.com.ua/index_ua.php"" target=""_blank"">Офіційна веб-сторінка</a><br>
<u>E-mail:</u> a@geotop.com.ua<br>",,,,,,,
52,GEOGRUP,"м. Дніпропетровськ, вул. Рогальова, 14",48.463379,35.058436,"<div align=""center""><b>GEOGRUP</b></div>
<div align=""center""><i>Контакти</i></div>
<u>Адреса:</u> м. Дніпропетровськ, вул. Рогальова, 14<br>
<u>Телефони:</u> (050)320-04-94<br>
<a href=""http://geogrup.com.ua/index.html"" target=""_blank"">Офіційна веб-сторінка</a><br>
<u>E-mail:</u> geogrup@meta.ua, p.kovalev@meta.ua<br>",,,,,,,
53,Основа,"м. Дніпропетровськ, вул. наб. В.І. Леніна, 29А",48.469842,35.050509,"<div align=""center""><b>Основа</b></div>
<div align=""center""><i>Контакти</i></div>
<u>Адреса:</u> м. Дніпропетровськ, вул. наб. В.І. Леніна, 29А<br>
<u>Телефони:</u> (056)745-04-28, 050-320-54-64, 098-352-30-93<br>
<a href=""http://osnova.dp.ua/"" target=""_blank"">Офіційна веб-сторінка</a><br>",,,,,,,
54,Архетон-Днепропетровск,"м. Дніпропетровськ, Шинна вул., 35",48.419913,35.020251,"<div align=""center""><b>Архетон-Днепропетровск</b></div>
<div align=""center""><i>Контакти</i></div>
<u>Поштовий індекс:</u> 49107<br>
<u>Адреса:</u> м. Дніпропетровськ, Шинна вул., 35<br>
<u>Телефони:</u> 7894846<br>
<a href=""http://www.archeton.dp.ua/"" target=""_blank"">Офіційна веб-сторінка</a><br>
<u>E-mail:</u> brusentsov@archeton.com.ua<br>",,,,,,,
55,Южстрой,"м. Дніпропетровськ, вул. наб. Заводська, 7",48.486483,34.933402,"<div align=""center""><b>Южстрой</b></div>
<div align=""center""><i>Контакти</i></div>
<u>Поштовий індекс:</u> 49600<br>
<u>Адреса:</u> м. Дніпропетровськ, вул. наб. Заводська, 7<br>
<u>Телефони:</u> 324–086, 716–09–02<br>
<a href=""http://ugstroy.com.ua/"" target=""_blank"">Офіційна веб-сторінка</a><br>
<u>E-mail:</u> ugstroiy@ukr.net<br>",,,,,,,
56,Geoscience,"м. Дніпропетровськ, вул. Леніна, 21
",48.464261,35.038991,"<div align=""center""><b>Geoscience</b></div>
<div align=""center""><i>Контакти</i></div>
<u>Адреса:</u> м. Дніпропетровськ, вул. Леніна, 21<br>
<u>Телефони:</u> +380668023447, +380937368281, +380663608242<br>
<a href=""http://geoscience.com.ua/"" target=""_blank"">Офіційна веб-сторінка</a><br>
<u>E-mail:</u> geoscience@meta.ua<br>",,,,,,,
57,НПФ Глобус,"м. Дніпропетровськ, вул. наб. В.І. Леніна, 29А",48.469563,35.050372,"<div align=""center""><b>НПФ Глобус</b></div>
<div align=""center""><i>Контакти</i></div>
<u>Поштовий індекс:</u> 49027<br>
<u>Адреса:</u> м. Дніпропетровськ, вул. наб. В.І. Леніна, 29А<br>
<u>Телефони:</u> +380977285631, +380999372585<br>
<a href=""http://globusdnepr.com.ua/"" target=""_blank"">Офіційна веб-сторінка</a><br>
<u>E-mail:</u> globusdnepr@ukr.net<br>",,,,,,,
58,УКРГЕОБУДПРОЕКТ,"Дніпропетровська область, м. Дніпродзержинськ, вул. Сировця, 16",48.516295,34.603187,"<div align=""center""><b>УКРГЕОБУДПРОЕКТ</b></div>
<div align=""center""><i>Контакти</i></div>
<u>Поштовий індекс:</u> 51931<br>
<u>Адреса:</u> Дніпропетровська область, м. Дніпродзержинськ, вул. Сировця, 16, офіс 1<br>
<u>Телефони:</u> (0569)53-27-75, 097-950-33-71<br>
<a href=""http://ukrgeo.dp.ua/"" target=""_blank"">Офіційна веб-сторінка</a><br>
<u>E-mail:</u> geoprofi_ne@ukr.net<br>",,,,,,,
59,ПГГ Днепрогидрострой,"м. Дніпропетровськ, вул. наб. Перемоги, 58/235",48.435480,35.068314,"<div align=""center""><b>ПГГ Днепрогидрострой</b></div>
<div align=""center""><i>Контакти</i></div>
<u>Поштовий індекс:</u> 49094<br>
<u>Адреса:</u> м. Дніпропетровськ, вул. наб. Перемоги, 58/235<br>
<u>Телефони:</u> +380562365223, +380676325392, +380562683720<br>
<a href=""http://burenie.dp.ua/"" target=""_blank"">Офіційна веб-сторінка</a><br>
<u>E-mail:</u> gidrobud@ukr.net<br>",,,,,,,
60,Алабама груп,"м. Дніпропетровськ, вул. Фучика, 18",48.458310,35.069544,"<div align=""center""><b>Алабама груп</b></div>
<div align=""center""><i>Контакти</i></div>
<u>Поштовий індекс:</u> 49027<br>
<u>Адреса:</u> м. Дніпропетровськ, вул. Фучика, 18, офіс 522<br>
<u>Телефони:</u> +380800503057<br>
<a href=""http://fasad5.com/"" target=""_blank"">Офіційна веб-сторінка</a><br>
<u>E-mail:</u> alabamagroup@i.ua<br>",,,,,,,
61,Кондрашов,"м. Дніпропетровськ, вул. Денисова, 43",48.385768,34.982531,"<div align=""center""><b>Кондрашов</b></div>
<div align=""center""><i>Контакти</i></div>
<u>Поштовий індекс:</u> 49057<br>
<u>Адреса:</u> м. Дніпропетровськ, вул. Денисова, 43<br>
<u>Телефони:</u> +380504571171<br>
<a href=""http://dneprgeowork.at.ua/"" target=""_blank"">Офіційна веб-сторінка</a><br>
<u>E-mail:</u> kondrashov_geo@mail.ru<br>",,,,,,,
62,Геотоп,"м. Дніпропетровськ, ул. наб. В.І. Леніна, 15",48.473648,35.039129,"<div align=""center""><b>Геотоп</b></div>
<div align=""center""><i>Контакти</i></div>
<u>Адреса:</u> м. Дніпропетровськ, ул. наб. В.І. Леніна, 15<br>
<u>Телефони:</u> +380677994253<br>
<u>E-mail:</u> geotop312@i.ua<br>",,,,,,,
63,Геозонд,"м. Дніпропетровськ, Сімферопольська вул., 17",48.449334,35.067530,"<div align=""center""><b>Геозонд</b></div>
<div align=""center""><i>Контакти</i></div>
<u>Поштовий індекс:</u> 49005<br>
<u>Адреса:</u> м. Дніпропетровськ, Сімферопольська вул., 17, офіс 721а<br>
<u>Телефони:</u> +380506190595<br>
<a href=""http://www.geozond.dp.ua/"" target=""_blank"">Офіційна веб-сторінка</a><br>
<u>E-mail:</u> geozond@mail.ru<br>",,,,,,,
64,Геотранстзем,"м. Дніпропетровськ, Комсомольська вул., 58",48.468477,35.029847,"<div align=""center""><b>Геотранстзем</b></div>
<div align=""center""><i>Контакти</i></div>
<u>Поштовий індекс:</u> 49020<br>
<u>Адреса:</u> м. Дніпропетровськ, Комсомольська вул., 58<br>
<u>Телефони:</u> +380563748729, +380563748729<br>
<u>E-mail:</u> geotrastzem@i.ua<br>",,,,,,,
65,ГІЛЬДІЯ ІНЖИНІРИНГ,"м. Харків, вул. Полтавський Шлях, 32",49.988195,36.218176,"<div align=""center""><b>Гільдія Інжиніринг</b></div>
<div align=""center""><i>Контакти</i></div>
<u>Адреса:</u> м. Харків, вул. Полтавський Шлях, 32, оф. 8<br>
<u>Телефони:</u> 063-179-86-45, (057)781-75-01<br>
<a href=""http://geotop.com.ua/index_ua.php"" target=""_blank"">Офіційна веб-сторінка</a><br>
<u>E-mail:</u> a@geotop.com.ua<br>",,,,,,,
66,Фінансово-правовий Консалтинг,"м. Харків, пл. Конституції, 1",49.988761,36.232326,"<div align=""center""><b>Фінансово-правовий Консалтинг</b></div>
<div align=""center""><i>Контакти</i></div>
<u>Поштовий індекс:</u> 61003<br>
<u>Адреса:</u> м. Харків, пл. Конституції, 1, ""Палац Праці"", 3-й під`їзд, 6 поверх, офіси 36-11, 36-16<br>
<u>Телефони:</u> (057)731-27-26, 730-06-56, (050)300-46-10, (067)502-22-33<br>
<a href=""http://www.fconsult.com.ua/"" target=""_blank"">Офіційна веб-сторінка</a><br>
<u>E-mail:</u> kons.fpk@gmail.com<br>",,,,,,,
67,Землеустройство. Геодезия. Кадастр.,"м. Харків, вул. Пушкінська, 79/1",50.006151,36.249557,"<div align=""center""><b>Землеустройство. Геодезия. Кадастр.</b></div>
<div align=""center""><i>Контакти</i></div>
<u>Поштовий індекс:</u> 61003<br>
<u>Адреса:</u> м. Харків, вул. Пушкінська, 79/1<br>
<u>Телефони:</u> (093)815-46-43, (095)190-33-83, (050)816-35-58, (050)838-90-17, (057)754-86-52, (067)784-81-72<br>
<a href=""http://ukrzem.kh.ua/index.html/"" target=""_blank"">Офіційна веб-сторінка</a><br>
<u>E-mail:</u> alxsid@mail.ru<br>",,,,,,,
68,Лимб-Сервис,"м. Харків, вул. Академіка Павлова, 144",50.011439,36.323065,"<div align=""center""><b>Лимб-Сервис</b></div>
<div align=""center""><i>Контакти</i></div>
<u>Поштовий індекс:</u> 61146<br>
<u>Адреса:</u> м. Харків, вул. Академіка Павлова, 144<br>
<u>Телефони:</u> (050)192-99-33<br>
<a href=""http://limb-service.com.ua/"" target=""_blank"">Офіційна веб-сторінка</a><br>
<u>E-mail:</u> limb_service@mail.ru<br>",,,,,,,
69,Асоціація Земляни,"м. Харків, Астрономічна вул., 17",50.049633,36.290523,"<div align=""center""><b>Асоціація Земляни</b></div>
<div align=""center""><i>Контакти</i></div>
<u>Поштовий індекс:</u> 611085<br>
<u>Адреса:</u> м. Харків, Астрономічна вул., 17, к. 41<br>
<u>Телефони:</u> (057)7202781, 0503004078<br>
<u>E-mail:</u> zemlyane@mail.ru<br>",,,,,,,
70,Земтехстандарт,"м. Харків, просп. Правди, 3",50.006518,36.224117,"<div align=""center""><b>Земтехстандарт</b></div>
<div align=""center""><i>Контакти</i></div>
<u>Поштовий індекс:</u> 61033<br>
<u>Адреса:</u> м. Харків, просп. Правди, 3<br>
<u>Телефони:</u> +38(050)343-05-52, +38(050)142-18-75; +38(050)881-63-32<br>
<a href=""http://ztstandart.com/"" target=""_blank"">Офіційна веб-сторінка</a><br>
<u>E-mail:</u> zemtehstandart@ukr.net<br>",,,,,,,
71,"Проектный институт ""Трансюжстройпроект""","м. Харків, вул. Рилєєва, 60",49.989857,36.199346,"<div align=""center""><b>Проектный институт ""Трансюжстройпроект""</b></div>
<div align=""center""><i>Контакти</i></div>
<u>Поштовий індекс:</u> 61045<br>
<u>Адреса:</u> м. Харків, вул. Рилєєва, 60<br>
<u>Телефони:</u> (+38057)763-10-37, (+38057)763-24-45, (+38057)763-24-46<br>
<a href=""http://www.transugstroy.ru/work/proekt"" target=""_blank"">Офіційна веб-сторінка</a><br>
<u>E-mail:</u> tusproekt@gmail.com<br>",,,,,,,
72,"Науково-виробниче підприємство ""Навигационно-геодезический центр""","м. Харків, вул. Балакірева 23-A",50.036439,36.24377,"<div align=""center""><b>Науково-виробниче підприємство ""Навигационно-геодезический центр""</b></div>
<div align=""center""><i>Контакти</i></div>
<u>Адреса:</u> м. Харків, вул. Балакірева 23-A<br>
<u>Телефони:</u> +38(057)345-12-38<br>
<a href=""http://ngc.com.ua/"" target=""_blank"">Офіційна веб-сторінка</a><br>
<u>E-mail:</u> ngc@ngc.com.ua<br>",,,,,,,
73,"Інжерно-правовий центр ""Гранд""","м. Харків, проспект Гагаріна, 1", 49.983955,36.245737,"<div align=""center""><b>Інжерно-правовий центр ""Гранд""</b></div>
<div align=""center""><i>Контакти</i></div>
<u>Поштовий індекс:</u> 61080<br>
<u>Адреса:</u> м. Харків, проспект Гагаріна, 1<br>
<u>Телефони:</u> +380577815317,+380988489900, +380505957414<br>
<a href=""http://grandcenter.kh.ua/main.html"" target=""_blank"">Офіційна веб-сторінка</a><br>
<u>E-mail:</u> Grandcenter@ukr.net<br>",,,,,,,
74,Дельта Консалтинг,"м. Харків, просп. Гагаріна, 4",49.983686,36.244622,"<div align=""center""><b>Дельта Консалтинг</b></div>
<div align=""center""><i>Контакти</i></div>
<u>Поштовий індекс:</u> 61010<br>
<u>Адреса:</u> м. Харків, просп. Гагаріна, 4<br>
<u>Телефони:</u> (+38057)719-21-18; (+38057)714-04-94; (066)114-50-75; (096)8651856<br>
<a href=""http://delta-c.com.ua/"" target=""_blank"">Офіційна веб-сторінка</a><br>
<u>E-mail:</u> delta@kharkov.com, delta_k@inbox.ru<br>",,,,,,,
75,Севгеоземпроект,"м. Севастополь, вулиця Новоросійська, 48",44.60402,33.518757,"<div align=""center""><b>Севгеоземпроект</b></div>
<div align=""center""><i>Контакти</i></div>
<u>Поштовий індекс:</u> 299011<br>
<u>Адреса:</u> м. Севастополь, вулиця Новоросійська, 48<br>
<u>Телефони:</u> +78692540841, +78692540842, +78692540843<br>
<a href=""http://www.sevgeozem.com.ua/"" target=""_blank"">Офіційна веб-сторінка</a><br>
<u>E-mail:</u> sevgeozem@mail.ru<br>",,,,,,,
76,Геокоминтиз,"м. Севастополь, вулиця Ломоносова, 17",44.606703,33.514248,"<div align=""center""><b>Геокоминтиз</b></div>
<div align=""center""><i>Контакти</i></div>
<u>Поштовий індекс:</u> 299011<br>
<u>Адреса:</u> м. Севастополь, вулиця Ломоносова, 17, офіс 2<br>
<u>Телефони:</u> +7(8692)550293, +7(978)8311907, +7(978)0453435<br>
<a href=""http://www.geocomintiz.ru/"" target=""_blank"">Офіційна веб-сторінка</a><br>",,,,,,,
77,Гинтиз,"м. Севастополь, вулиця Індустріальна, 3А",44.563233,33.517126,"<div align=""center""><b>Гинтиз</b></div>
<div align=""center""><i>Контакти</i></div>
<u>Поштовий індекс:</u> 299040<br>
<u>Адреса:</u> м. Севастополь, вулиця Ломоносова, 17, офіс 2<br>
<u>Телефони:</u> +78692571181<br>
<a href=""http://www.giintiz.com/"" target=""_blank"">Офіційна веб-сторінка</a><br>
<u>E-mail:</u> voznyk-viktoria@mail.ru, giintiz@inbox.ru<br>",,,,,,,
78,Меридиан,"м. Севастополь, вулиця Правди, 10",44.578669,33.435629,"<div align=""center""><b>Меридиан</b></div>
<div align=""center""><i>Контакти</i></div>
<u>Поштовий індекс:</u> 299040<br>
<u>Адреса:</u>м. Севастополь, вулиця Правди, 10, корпус 8, офіс № 33<br>
<u>Телефони:</u> +78692542055<br>
<a href=""http://krim.meridian56.ru/"" target=""_blank"">Офіційна веб-сторінка</a><br>
<u>E-mail:</u> krim@meridian56.ru<br>",,,,,,,
79,Севгеоцентр,"м. Севастополь, вулиця Очаківців, 50",44.602769,33.520831,"<div align=""center""><b>Севгеоцентр</b></div>
<div align=""center""><i>Контакти</i></div>
<u>Поштовий індекс:</u> 299040<br>
<u>Адреса:</u>м. Севастополь, вулиця Очаківців, 50<br>
<u>Телефони:</u> +78692548570<br>",,,,,,,
80,Таврида Будпроект,"м. Севастополь, вулиця Астана Кесаєва, 14Б",44.587344,33.456070,"<div align=""center""><b>Таврида Будпроект</b></div>
<div align=""center""><i>Контакти</i></div>
<u>Поштовий індекс:</u> 299038<br>
<u>Адреса:</u>м. Севастополь, вулиця Астана Кесаєва, 14Б<br>
<u>Телефони:</u> +78692921110<br>",,,,,,,
81,Крымcтройсервис,"м. Севастополь, вулиця Токарева, 9",44.578132,33.508103,"<div align=""center""><b>Крымcтройсервис</b></div>
<div align=""center""><i>Контакти</i></div>
<u>Поштовий індекс:</u> 299003<br>
<u>Адреса:</u>м. Севастополь, вулиця Астана Кесаєва, 14Б<br>
<u>Телефони:</u> +78692450787<br>",,,,,,,
82,Невада,"м. Севастополь, вулиця Новоросійська, 11",44.608596,33.516772,"<div align=""center""><b>Невада</b></div>
<div align=""center""><i>Контакти</i></div>
<u>Поштовий індекс:</u> 299011<br>
<u>Адреса:</u> м. Севастополь, вулиця Новоросійська, 11, офіс 3<br>
<u>Телефони:</u> +78692931841<br>",,,,,,,
83,Радиан Плюс,"м. Севастополь (Балаклава), вулиця Крестовського, 28А",44.511975,33.60425,"<div align=""center""><b>Радиан Плюс</b></div>
<div align=""center""><i>Контакти</i></div>
<u>Адреса:</u> м. Севастополь (Балаклава), вулиця Крестовського, 28А, 3й поверх<br>
<u>Телефони:</u> +78692463400, 0692463400<br>
<a href=""http://d-usov.ru/"" target=""_blank"">Офіційна веб-сторінка</a><br>
<u>E-mail:</u> radian_sev@mail.ru<br>",,,,,,,
84,Гео Експерт,"м. Севастополь, вулиця Київська, 77/4",44.596582,33.50301,"<div align=""center""><b>Гео Експерт</b></div>
<div align=""center""><i>Контакти</i></div>
<u>Поштовий індекс:</u>295034<br>
<u>Адреса:</u> м. Севастополь, вулиця Київська, 77/4, оф. 201Г<br>
<u>Телефони:</u> +7(978)755-84-38, +380(50)496-23-93, +7(978)798-34-80<br>
<a href=""http://www.geo-expert.org/"" target=""_blank"">Офіційна веб-сторінка</a><br>
<u>E-mail:</u> geo-ekspert@mail.ru<br>",,,,,,,
85,ГІЛЬДІЯ ІНЖИНІРИНГ,"м. Одеса, Троїцька вул., 33",46.476264,30.740052,"<div align=""center""><b>Гільдія Інжиніринг</b></div>
<div align=""center""><i>Контакти</i></div>
<u>Адреса:</u> м. Одеса, Троїцька вул., 33, ТЦ ""Троїцький""<br>
<u>Телефони:</u> 048-700-45-10<br>
<a href=""http://geotop.com.ua/index_ua.php"" target=""_blank"">Офіційна веб-сторінка</a><br>
<u>E-mail:</u> a@geotop.com.ua<br>",,,,,,,
86,Геоконсалтинг,"м. Одеса, Рішельєвська вул., 72",46.470757,30.738613,"<div align=""center""><b>Геоконсалтинг</b></div>
<div align=""center""><i>Контакти</i></div>
<u>Адреса:</u> м. Одеса, Рішельєвська вул., 72<br>
<u>Телефони:</u> (048)711‒72‒87, (0482)37‒32‒57, (048)714‒40‒35<br>
<a href=""http://geokonsalting.od.ua/"" target=""_blank"">Офіційна веб-сторінка</a><br>
<u>E-mail:</u> odessageokonsalting@ukr.net, odessageokonsalting@gmail.com<br>",,,,,,,
87,Дива Инвест,"м. Одеса, просп. Гагаріна, 2",46.459202,30.755600,"<div align=""center""><b>Дива Инвест</b></div>
<div align=""center""><i>Контакти</i></div>
<u>Адреса:</u> м. Одеса, просп. Гагаріна, 2<br>
<u>Телефони:</u> (048)728‒42‒28, (048)753‒40‒08, 067‒484‒30‒19, 067‒483‒74‒55<br>
<a href=""http://devainvest.od.ua/"" target=""_blank"">Офіційна веб-сторінка</a><br>
<u>E-mail:</u> devainvest@ukr.net<br>",,,,,,,
88,Ингер-Град,"м. Одеса, Люстдорфська дор., 140А",46.412642,30.724797,"<div align=""center""><b>Ингер-Град</b></div>
<div align=""center""><i>Контакти</i></div>
<u>Адреса:</u> м. Одеса, Люстдорфська дор., 140А<br>
<u>Телефони:</u> 067‒323‒98‒06, 067‒322‒04‒21<br>
<a href=""http://inger-grad.com/"" target=""_blank"">Офіційна веб-сторінка</a><br>
<u>E-mail:</u> y.pronoza@inger.grad.com<br>",,,,,,,
89,Одеське регіональне БТІ,"м. Одеса, вул. Маршала Говорова, 11Д",46.445880,30.749880,"<div align=""center""><b>Одеське регіональне БТІ</b></div>
<div align=""center""><i>Контакти</i></div>
<u>Поштовий індекс:</u>65000<br>
<u>Адреса:</u> м. Одеса, вул. Маршала Говорова, 11Д<br>
<u>Телефони:</u> (048)799‒75‒83, (048)737‒88‒00<br>
<a href=""http://orbti.com.ua/"" target=""_blank"">Офіційна веб-сторінка</a><br>
<u>E-mail:</u> y.pronoza@inger.grad.com<br>",,,,,,,
90,"Державне підприємство ""Инагро""","м. Одеса, вул. Чорноморського Козацтва, 115",46.514312,30.724054,"<div align=""center""><b>Державне підприємство ""Инагро""</b></div>
<div align=""center""><i>Контакти</i></div>
<u>Адреса:</u> м. Одеса, вул. Чорноморського Козацтва, 115<br>
<u>Телефони:</u> (0482)32‒32‒31, (0482)32‒11‒70<br>
<a href=""http://zemrada.org.ua/"" target=""_blank"">Офіційна веб-сторінка</a><br>",,,,,,,
91,Одеський міський землевпорядний центр,"м. Одеса, вул. Черняховського, 6",46.438712,30.747921,"<div align=""center""><b>Одеський міський землевпорядний центр</b></div>
<div align=""center""><i>Контакти</i></div>
<u>Поштовий індекс:</u>65009<br>
<u>Адреса:</u> м. Одеса, вул. Черняховського, 6, 6й поверх<br>
<u>Телефони:</u> (048)718‒17‒01, 067‒489‒07‒84<br>
<a href=""http://kp-ogzc.uaprom.net/"" target=""_blank"">Офіційна веб-сторінка</a><br>",,,,,,,
92,Архимас,"м. Одеса, вул. Якова Бреуса, 61/3",46.450971,30.709539,"<div align=""center""><b>Архимас</b></div>
<div align=""center""><i>Контакти</i></div>
<u>Адреса:</u> м. Одеса, вул. Якова Бреуса, 61/3<br>
<u>Телефони:</u> 067‒557‒81‒28, 063‒946‒82‒22, (048)703‒61‒86<br>
<a href=""http://arhimas.com/"" target=""_blank"">Офіційна веб-сторінка</a><br>
<u>E-mail:</u> start@arhimas.com<br>",,,,,,,
93,ДСК Благоустрий,"м. Одеса, Люстдорфська дор., 140А",46.412453,30.725275,"<div align=""center""><b>ДСК Благоустрий</b></div>
<div align=""center""><i>Контакти</i></div>
<u>Поштовий індекс:</u>65114<br>
<u>Адреса:</u> м. Одеса, Люстдорфська дор., 140А<br>
<u>Телефони:</u> +380487754045, +380487376797, +380677683073<br>
<a href=""http://dsk.od.ua/"" target=""_blank"">Офіційна веб-сторінка</a><br>
<u>E-mail:</u> dsk.blagoustriy@mail.ru, office@dsk.od.ua<br>",,,,,,,
94,Спецналадка,"м. Одеса, Тираспольська вул., 24",46.476861,30.725570,"<div align=""center""><b>Спецналадка</b></div>
<div align=""center""><i>Контакти</i></div>
<u>Адреса:</u> м. Одеса, Тираспольська вул., 24<br>
<u>Телефони:</u> +380487770469, +380487732971, +380674802971<br>
<a href=""http://specnaladka.at.ua/"" target=""_blank"">Офіційна веб-сторінка</a><br>
<u>E-mail:</u> naladka_spec@ukr.net <br>",,,,,,,
95,ГІЛЬДІЯ ІНЖИНІРИНГ,"м. Житомир, вул. Першого травня, 40",50.249174,28.681644,"<div align=""center""><b>Гільдія Інжиніринг</b></div>
<div align=""center""><i>Контакти</i></div>
<u>Адреса:</u> м. Житомир, вул. Першого травня, 40, БЦ ""Путятинський""<br>
<u>Телефони:</u> (041)246-32-17<br>
<a href=""http://geotop.com.ua/index_ua.php"" target=""_blank"">Офіційна веб-сторінка</a><br>
<u>E-mail:</u> a@geotop.com.ua<br>",,,,,,,
96,Житомирбудрозвидування,"м. Житомир, вул. Рильського, 9",50.252482,28.653923,"<div align=""center""><b>Житомирбудрозвидування</b></div>
<div align=""center""><i>Контакти</i></div>
<u>Поштовий індекс:</u> 10014<br>
<u>Адреса:</u> м. Житомир, вул. Рильського, 9<br>
<u>Телефони:</u> 43921, 0974543898, 222601<br>
<u>E-mail:</u> peter@set.com.ua<br>",,,,,,,
97,Міський Департамент Нерухомості,"м. Житомир, вул. Небесної Сотні, 60",50.266145,28.663671,"<div align=""center""><b>Міський Департамент Нерухомості</b></div>
<div align=""center""><i>Контакти</i></div>
<u>Адреса:</u> м. Житомир, вул. Небесної Сотні, 60<br>
<u>Телефони:</u> 0677404880, 0631350800, 0661502101 <br>
<a href=""http://mdn-ua.com/"" target=""_blank"">Офіційна веб-сторінка</a><br>",,,,,,,
98,Здобуток-II,"м. Житомир, вул. Котовського, 62",50.264160,28.676476,"<div align=""center""><b>Здобуток-II</b></div>
<div align=""center""><i>Контакти</i></div>
<u>Поштовий індекс:</u> 10030<br>
<u>Адреса:</u> м. Житомир, вул. Котовського, 62<br>
<u>Телефони:</u> +380412414607, +380412372931<br>
<a href=""http://mdn-ua.com/"" target=""_blank"">Офіційна веб-сторінка</a><br>",,,,,,,
99,Інститут землеустрою,"м. Житомир, вул. Довженка, 45",50.245815,28.681070,"<div align=""center""><b>Інститут землеустрою</b></div>
<div align=""center""><i>Контакти</i></div>
<u>Адреса:</u> м. Житомир, вул. Довженка, 45<br>
<u>Телефони:</u> 342430<br>
<a href=""http://dkzem.zt.ua/"" target=""_blank"">Офіційна веб-сторінка</a><br>",,,,,,,
100,Експрес сервіс,"м. Бердичів, вул. Європейська, 60",49.891185,28.593241,"<div align=""center""><b>Експрес сервіс</b></div>
<div align=""center""><i>Контакти</i></div>
<u>Адреса:</u> Житомирська область, м. Бердичів, вул. Європейська, 60<br>
<u>Телефони:</u> (04143)40378 <br>",,,,,,,
101,ТЕРРА,"м. Житомир, Старий бул., 10",50.249149,28.667213,"<div align=""center""><b>ТЕРРА</b></div>
<div align=""center""><i>Контакти</i></div>
<u>Поштовий індекс:</u> 10008<br>
<u>Адреса:</u> м. Житомир, Старий бул., 10<br>
<u>Телефони:</u> +380(412)420660<br>",,,,,,,
102,Житомирбудземдокументація,"м. Житомир, вул. Київська, 25",50.257347,28.666009,"<div align=""center""><b>Житомирбудземдокументація</b></div>
<div align=""center""><i>Контакти</i></div>
<u>Адреса:</u> м. Житомир, вул. Київська, 25<br>
<u>Телефони:</u> +380(412)445638<br>",,,,,,,
103,Головне управління Держкомзему в Житомирській області,"м. Житомир, вул. Довженка, 45",50.245791,28.681075,"<div align=""center""><b>Головне управління Держкомзему в Житомирській області</b></div>
<div align=""center""><i>Контакти</i></div>
<u>Адреса:</u> м. Житомир, вул. Довженка, 45<br>
<u>Телефони:</u> +38(0642)346831<br>
<a href=""hhttp://gudzazt.gov.ua/"" target=""_blank"">Офіційна веб-сторінка</a><br>",,,,,,,
104,ГІЛЬДІЯ ІНЖИНІРИНГ,"м. Вінниця, вул. Максимовича, 41",49.243485,28.429434,"<div align=""center""><b>Гільдія Інжиніринг</b></div>
<div align=""center""><i>Контакти</i></div>
<u>Адреса:</u> м. Вінниця, вул. Максимовича, 41, офісний центр ""Кряж""<br>
<u>Телефони:</u> (043)269-96-70<br>
<a href=""http://geotop.com.ua/index_ua.php"" target=""_blank"">Офіційна веб-сторінка</a><br>
<u>E-mail:</u> a@geotop.com.ua<br>",,,,,,,
105,Центр Земельного Кадастру,"м. Вінниця, вул. Шолом-Алейхема, 9",49.232804,28.477587,"<div align=""center""><b>Центр Земельного Кадастру</b></div>
<div align=""center""><i>Контакти</i></div>
<u>Адреса:</u> м. Вінниця, вул. Шолом-Алейхема, 9<br>
<u>Телефони:</u> +380(432)327985, +380(432)320727<br>",,,,,,,
106,Центр-Плюс,"м. Вінниця, Келецька вул., 84",49.226499,28.409413,"<div align=""center""><b>Центр-Плюс</b></div>
<div align=""center""><i>Контакти</i></div>
<u>Поштовий індекс:</u> 21021<br>
<u>Адреса:</u>м. Вінниця, Келецька вул., 84<br>
<u>Телефони:</u> +380(432)612362<br>",,,,,,,
107,Инж-Агро,"м. Вінниця, вул. 600-річчя, 66",49.222171,28.425990,"<div align=""center""><b>Инж-Агро</b></div>
<div align=""center""><i>Контакти</i></div>
<u>Поштовий індекс:</u> 21027<br>
<u>Адреса:</u>м. Вінниця, вул. 600-річчя, 66<br>
<u>Телефони:</u> (0432)51-35-66, (067)430-9-873<br>
<a href=""http://www.ingagro.com.ua/"" target=""_blank"">Офіційна веб-сторінка</a><br>
<u>E-mail:</u> ingagro@yandex.ru<br>",,,,,,,
108,Строймонтаж ЛТД,"м. Вінниця, вул. Першотравнева, 90",49.237889,28.460180,"<div align=""center""><b>Строймонтаж ЛТД</b></div>
<div align=""center""><i>Контакти</i></div>
<u>Адреса:</u>м. Вінниця, вул. Першотравнева, 90<br>
<u>Телефони:</u> +38(0432)67-09-92, 67-60-78, 67-60-77<br>
<a href=""http://www.stmltd.com.ua/"" target=""_blank"">Офіційна веб-сторінка</a><br>",,,,,,,
109,ТриАлекс,"м. Вінниця, вул. Гоголя, 11/1",49.232,28.459446,"<div align=""center""><b>ТриАлекс</b></div>
<div align=""center""><i>Контакти</i></div>
<u>Адреса:</u>м. Вінниця, вул. Гоголя, 11/1<br>
<u>Телефони:</u> +380432524630<br>",,,,,,,
110,Винекс,"м. Вінниця, Келецька вул., 63",49.224561,28.416333,"<div align=""center""><b>Винекс</b></div>
<div align=""center""><i>Контакти</i></div>
<u>Адреса:</u> м. Вінниця, Келецька вул., 63<br>
<u>Телефони:</u> 69-24-57, 56-25-53, (095)088-00-02<br>",,,,,,,
111,Запорожпроект,"
м. Запоріжжя, вулиця 40-річчя Радянської України, 50А
", 47.853266,35.115809,"<div align=""center""><b>Запорожпроект</b></div>
<div align=""center""><i>Контакти</i></div>
<u>Адреса:</u> м. Запоріжжя, вулиця 40-річчя Радянської України, 50А<br>
<u>Телефони:</u> (061)2123920, (067)6140400<br>
<a href=""http://zp-pr.stroika.biz.ua/"" target=""_blank"">Офіційна веб-сторінка</a><br>",,,,,,,
112,ЭнергоКомплекс,"м. Запоріжжя, просп. Металургів, 10","47.860661",35.106162,"<div align=""center""><b>ЭнергоКомплекс</b></div>
<div align=""center""><i>Контакти</i></div>
<u>Поштовий індекс:</u> 69032<br>
<u>Адреса:</u> м. Запоріжжя, просп. Металургів, 10<br>
<u>Телефони:</u> +380612220800, +380612123292
+380612367868, +380612201766<br>
<a href=""http://ekom.com.ua/"" target=""_blank"">Офіційна веб-сторінка</a><br>
<u>E-mail:</u> Energokompleks2@ya.ru <br>",,,,,,,
113,ГІЛЬДІЯ ІНЖИНІРИНГ,"м. Запоріжжя, просп. Леніна, 152А",47.831170,35.161199,"<div align=""center""><b>Гільдія Інжиніринг</b></div>
<div align=""center""><i>Контакти</i></div>
<u>Адреса:</u> м. Запоріжжя, просп. Леніна, 152А<br>
<u>Телефони:</u> 095-061-50-58, (061)707-89-96<br>
<a href=""http://geotop.com.ua/index_ua.php"" target=""_blank"">Офіційна веб-сторінка</a><br>
<u>E-mail:</u> a@geotop.com.ua<br>",,,,,,,
114,Земля ПЛЮС,"м. Запоріжжя, Рекордна вул., 20А",47.852437,35.124691,"<div align=""center""><b>Земля ПЛЮС</b></div>
<div align=""center""><i>Контакти</i></div>
<u>Поштовий індекс:</u> 69037<br>
<u>Адреса:</u> м. Запоріжжя, Рекордна вул., 20А, оф.227<br>
<u>Телефони:</u> +380617011738, +380963705108, +380999045771<br>
<a href=""http://zemlya.zp.ua/"" target=""_blank"">Офіційна веб-сторінка</a><br>
<u>E-mail:</u> vilen.radionov@gmail.com<br>",,,,,,,
115,Синергия,"м. Запоріжжя, вулиця 40-річчя Радянської України, 46",47.85427,35.115809,"<div align=""center""><b>Синергия</b></div>
<div align=""center""><i>Контакти</i></div>
<u>Поштовий індекс:</u> 69037<br>
<u>Адреса:</u> м. Запоріжжя, вулиця 40-річчя Радянської України, 46<br>
<u>Телефони:</u> +380612137985<br>",,,,,,,
116,Сфера-Запорожье,"м. Запоріжжя, вул. Перемоги, 129А",47.836665,35.149069,"<div align=""center""><b>Сфера-Запорожье</b></div>
<div align=""center""><i>Контакти</i></div>
<u>Поштовий індекс:</u> 69057<br>
<u>Адреса:</u> м. Запоріжжя, вул. Перемоги, 129А<br>
<u>Телефони:</u> +380612135009, +380612135008<br>
<a href=""http://www.transsphere.com.ua/"" target=""_blank"">Офіційна веб-сторінка</a><br>
<u>E-mail:</u> agent@transsphere.com.ua<br>",,,,,,,
117,Запорожгипроводхоз,"м. Запоріжжя, просп. Леніна, 105",47.828685,35.161494,"<div align=""center""><b>Запорожгипроводхоз</b></div>
<div align=""center""><i>Контакти</i></div>
<u>Поштовий індекс:</u> 69009<br>
<u>Адреса:</u> м. Запоріжжя, просп. Леніна, 105, оф. 213<br>
<u>Телефони:</u> +380617876149, +380612221299, +380612246821<br>",,,,,,,
118,Запорожмост,"м. Запоріжжя, вул. Яценка, 6",47.833573,35.146021,"<div align=""center""><b>Запорожмост</b></div>
<div align=""center""><i>Контакти</i></div>
<u>Поштовий індекс:</u> 69005<br>
<u>Адреса:</u> м. Запоріжжя, вул. Яценка, 6<br>
<u>Телефони:</u> +380612337127, 2349011<br>",,,,,,,
119,Градпроект,"м. Запоріжжя, вул. Зелінського, 3",47.852925,35.117808,"<div align=""center""><b>Градпроект</b></div>
<div align=""center""><i>Контакти</i></div>
<u>Поштовий індекс:</u> 69037<br>
<u>Адреса:</u> м. Запоріжжя, вул. Зелінського, 3<br>
<u>Телефони:</u> +380612333455<br>",,,,,,,
120,Демир,"м. Запоріжжя, вулиця 40-річчя Радянської України, 39А",47.85401,35.119977,"<div align=""center""><b>Демир</b></div>
<div align=""center""><i>Контакти</i></div>
<u>Поштовий індекс:</u> 69037<br>
<u>Адреса:</u> м. Запоріжжя, вулиця 40-річчя Радянської України, 39А<br>
<u>Телефони:</u> +380612209290<br>",,,,,,,
121,Геоинжиниринг,"м. Запоріжжя, вул. Новобудов, 3",47.811749,35.026502,"<div align=""center""><b>Геоинжиниринг</b></div>
<div align=""center""><i>Контакти</i></div>
<u>Адреса:</u> м. Запоріжжя, вул. Новобудов, 3<br>
<u>Телефони:</u> +38(061)2891837<br>",,,,,,,
122,"Градостроитель, ГИС Центр ","м. Запоріжжя, вулиця Перемоги, 15",47.849517, 35.103053,"<div align=""center""><b>Градостроитель, ГИС Центр</b></div>
<div align=""center""><i>Контакти</i></div>
<u>Адреса:</u> м. Запоріжжя, вулиця Перемоги, 15<br>
<u>Телефони:</u> +38(061)220-01-50<br>",,,,,,,
123,Теплоэлектропроект,"м. Донецьк, проспект Германа Титова, 8Б",48.021844,37.801502,"<div align=""center""><b>Теплоэлектропроект</b></div>
<div align=""center""><i>Контакти</i></div>
<u>Поштовий індекс:</u> 83072<br>
<u>Адреса:</u>м. Донецьк, проспект Германа Титова, 8Б, 4й поверх<br>
<u>Телефони:</u> +380623813490, +380623813491, +380623813190, +380623451395<br>
<a href=""http://www.de.com.ua/"" target=""_blank"">Офіційна веб-сторінка</a><br>
<u>E-mail:</u> dontep@ukr.net<br>",,,,,,,
124,АКВА,"м. Донецьк, Цілинна вул., 5",48.022545,37.865142,"<div align=""center""><b>АКВА</b></div>
<div align=""center""><i>Контакти</i></div>
<u>Поштовий індекс:</u> 83076<br>
<u>Адреса:</u>м. Донецьк, Цілинна вул., 5<br>
<u>Телефони:</u> +380623482810, +380502940469, +380990665102, +380623482078<br>
<a href=""http://www.burenie-donetsk.com.ua/"" target=""_blank"">Офіційна веб-сторінка</a><br>
<u>E-mail:</u> akvabur@rambler.ru<br>",,,,,,,
125,Всеслав-Донбасс,"м. Донецьк, вул. Савельєва, 42",47.977476,37.771936,"<div align=""center""><b>Всеслав-Донбасс</b></div>
<div align=""center""><i>Контакти</i></div>
<u>Поштовий індекс:</u> 83045<br>
<u>Адреса:</u>м. Донецьк, вул. Савельєва, 42<br>
<u>Телефони:</u> +380623875558, +380623850959, +380623875557, +380623334106<br>
<a href=""http://www.vseslav-donbass.com/"" target=""_blank"">Офіційна веб-сторінка</a><br>
<u>E-mail:</u> vseslav@vseslav-donbass.com<br>",,,,,,,
126,Альтком-Инвестстрой,"м. Донецьк, вул. Челюскінців, 69А",47.994879,37.808629,"<div align=""center""><b>Альтком-Инвестстрой</b></div>
<div align=""center""><i>Контакти</i></div>
<u>Поштовий індекс:</u> 83001<br>
<u>Адреса:</u>м. Донецьк, вул. Челюскінців, 69А, оф. 902<br>
<u>Телефони:</u> +380623481248, +380623304864, +380623373188, +380623372433<br>
<a href=""http://doninvest.altcom.ua/"" target=""_blank"">Офіційна веб-сторінка</a><br>",,,,,,,
127,"Науково-виробниче пыдприэмство ""Южниигипрогаз""","м. Донецьк, вул. Артема, 169Г",48.038254,37.783147,"<div align=""center""><b>Науково-виробниче пыдприэмство ""Южниигипрогаз""</b></div>
<div align=""center""><i>Контакти</i></div>
<u>Адреса:</u>м. Донецьк, вул. Артема, 169Г<br>
<u>Телефони:</u> +380623057661, +380622586312<br>
<a href=""http://www.ungg.org/"" target=""_blank"">Офіційна веб-сторінка</a><br>
<u>E-mail:</u> ex@yuzh-gaz.donetsk.ua<br>",,,,,,,
128,Промстрой,"м. Донецьк, вул. Купріна, 280",47.973203,37.742958,"<div align=""center""><b>Архітектурно-будівельне об`єднання ""Промстрой""</b></div>
<div align=""center""><i>Контакти</i></div>
<u>Адреса:</u>м. Донецьк, вул. Купріна, 280<br>
<u>Телефони:</u> +380623490710, +380502235383, +380506513490<br>
<a href=""http://www.promstroy.dn.ua/"" target=""_blank"">Офіційна веб-сторінка</a><br>
<u>E-mail:</u> is-don@mail.ru<br>",,,,,,,
129,Донецкшахтопроходка,"м. Донецьк, просп. Полеглих Комунарів, 102",47.990410,37.835648,"<div align=""center""><b>Донецкшахтопроходка</b></div>
<div align=""center""><i>Контакти</i></div>
<u>Поштовий індекс:</u> 83086<br>
<u>Адреса:</u>м. Донецьк, просп. Полеглих Комунарів, 102<br>
<u>Телефони:</u> +380622916417, +380622916765<br>
<a href=""http://www.dsp.dn.ua/"" target=""_blank"">Офіційна веб-сторінка</a><br>
<u>E-mail:</u> trest@dsp.dn.ua<br>",,,,,,,
130,Интербис,"м. Донецьк, просп. Панфілова, 86",48.011650,37.771026,"<div align=""center""><b>Интербис</b></div>
<div align=""center""><i>Контакти</i></div>
<u>Поштовий індекс:</u> 83087<br>
<u>Адреса:</u>м. Донецьк, просп. Панфілова, 86<br>
<u>Телефони:</u>+380623377505, +380958508787, +380958776764<br>
<u>E-mail:</u> europe@interbis.com.ua, іnfo@europe.dn.ua<br>",,,,,,,
131,Б.С.Б.,"м. Донецьк,просп. Дзержинського, 16",47.994098,37.824088,"<div align=""center""><b>Б.С.Б.</b></div>
<div align=""center""><i>Контакти</i></div>
<u>Адреса:</u>м. Донецьк,просп. Дзержинського, 16<br>
<u>Телефони:</u> +380623373346, +380623359569<br>
<a href=""http://www.bsb.com.ua/"" target=""_blank"">Офіційна веб-сторінка</a><br>
<u>E-mail:</u> іnfo@bsb.com.ua <br>",,,,,,,
132,АкваСтройСервис,"м. Донецьк, Поліграфічна вулиця, 1",48.05039, 37.769406,"<div align=""center""><b>АкваСтройСервис</b></div>
<div align=""center""><i>Контакти</i></div>
<u>Поштовий індекс:</u> 83086<br>
<u>Адреса:</u>м. Донецьк, Поліграфічна вулиця, 1<br>
<u>Телефони:</u> +380623339207, +380623458475<br>
<a href=""http://bas.com.ua/"" target=""_blank"">Офіційна веб-сторінка</a><br>
<u>E-mail:</u> asservis@ukr.net<br>",,,,,,,
133,Управління земельних ресурсів Донецької міської ради,"м. Донецьк, вул. Марії Ульянової, 54",48.010377,37.840616,"<div align=""center""><b>Управління земельних ресурсів Донецької міської ради</b></div>
<div align=""center""><i>Контакти</i></div>
<u>Поштовий індекс:</u> 83017<br>
<u>Адреса:</u>м. Донецьк, вул. Марії Ульянової, 54<br>
<u>Телефони:</u> (062)210-57-73, 311-11-71<br>",,,,,,,
134,Управление Шахтостроймонтаж-8,"м. Донецьк, просп. Полеглих Комунарів, 81",47.992789,37.842177,"<div align=""center""><b>Управление Шахтостроймонтаж-8</b></div>
<div align=""center""><i>Контакти</i></div>
<u>Адреса:</u>м. Донецьк, просп. Полеглих Комунарів, 102<br>
<u>Телефони:</u> 050-213-98-74, 050-425-95-74<br>
<a href=""http://zemlestroy.gorod.dn.ua/"" target=""_blank"">Офіційна веб-сторінка</a><br>
<u>E-mail:</u> ushsm-8@mail.ru<br>",,,,,,,
135,ГІЛЬДІЯ ІНЖИНІРИНГ,"м. Ужгород, вулиця Легоцького, 46",48.60896,22.26575,"<div align=""center""><b>Гільдія Інжиніринг</b></div>
<div align=""center""><i>Контакти</i></div>
<u>Адреса:</u> м. Ужгород, вулиця Легоцького, 46<br>
<u>Телефони:</u> 097-57-246-57<br>
<a href=""http://geotop.com.ua/index_ua.php"" target=""_blank"">Офіційна веб-сторінка</a><br>
<u>E-mail:</u> a@geotop.com.ua<br>",,,,,,,
136,Відділ Держкомзему у місті  Мукачеве,"м. Мукачево, вул. Пушкіна, 2",48.442015,22.717979,"<div align=""center""><b>Відділ Держкомзему у місті  Мукачеве</b></div>
<div align=""center""><i>Контакти</i></div>
<u>Поштовий індекс:</u> 89600<br>
<u>Адреса:</u>Закарпатська область, м. Мукачево, вул. Пушкіна, 2<br>
<u>Телефони:</u> (03131)2-10-91<br>
<a href=""http://zemreszak.gov.ua/index.php/"" target=""_blank"">Офіційна веб-сторінка</a><br>
<u>E-mail:</u> mukzemvid@ukr.net<br>",,,,,,,
137,ТРЕГЕР,"с. Бабичі,  вул. Радянська, 32",48.445848,22.903560,"<div align=""center""><b>ТРЕГЕР</b></div>
<div align=""center""><i>Контакти</i></div>
<u>Поштовий індекс:</u> 89633<br>
<u>Адреса:</u>с. Бабичі, Мукачевський район, Закарпатська область, вул. Радянська, 32<br>
<u>Телефони:</u>  +380(3131)43652<br>",,,,,,,
138,Експерт-центр,"м.Ужгород, вул. Собранецька, 45",48.628121,22.288496,"<div align=""center""><b>Експерт-центр</b></div>
<div align=""center""><i>Контакти</i></div>
<u>Поштовий індекс:</u> 88000<br>
<u>Адреса:</u>м.Ужгород, вул. Собранецька, 45<br>
<u>Телефони:</u> (0312)64-44-73, (050)672-90-94<br>
<a href=""http://expert-centre.uz.ua/"" target=""_blank"">Офіційна веб-сторінка</a><br>
<u>E-mail:</u> pp.expert.centre@gmail.com<br>",,,,,,,
139,Ініціаліс,"м. Ужгород, вул. Підградська, 59",48.623928,22.304681,"<div align=""center""><b>Закарпатська товарна біржа ""Ініціаліс""</b></div>
<div align=""center""><i>Контакти</i></div>
<u>Поштовий індекс:</u> 88000<br>
<u>Адреса:</u>м. Ужгород, вул. Підградська, 59<br>
<u>Телефони:</u> +38(0312)619123<br>",,,,,,,
140,Геодезичне та земельне бюро,"м.Ужгород, вул. Гагаріна, 13А",48.610944,22.304782,"<div align=""center""><b>Геодезичне та земельне бюро</b></div>
<div align=""center""><i>Контакти</i></div>
<u>Поштовий індекс:</u> 89600<br>
<u>Адреса:</u>м.Ужгород, вул. Гагаріна, 13А<br>
<u>Телефони:</u> 3122-501411721<br>",,,,,,,
141,Терра Капітал,"м. Ужгород, вул. Собранецька, 24",48.626979,22.293708,"<div align=""center""><b>Терра Капітал</b></div>
<div align=""center""><i>Контакти</i></div>
<u>Поштовий індекс:</u> 88000<br>
<u>Адреса:</u>м. Ужгород, вул. Собранецька, 24<br>
<u>Телефони:</u> +38(0312)616084<br>",,,,,,,
142,Кіровоградський інститут землеустрою,"м. Кіровоград, вул. Академіка Корольова, 26",48.505404,32.234880,"<div align=""center""><b>Кіровоградський інститут землеустрою</b></div>
<div align=""center""><i>Контакти</i></div>
<u>Адреса:</u> м. Кіровоград, вул. Академіка Корольова, 26<br>
<u>Телефони:</u> (0522) 36-53-63<br>
<a href=""http://geodeziya.org.ua/"" target=""_blank"">Офіційна веб-сторінка</a><br>
<u>E-mail:</u> zempro@yandex.ru<br>",,,,,,,
143,ГІЛЬДІЯ ІНЖИНІРИНГ,"м. Кіровоград, вул. Орджонікідзе, 7",48.518828,32.263673,"<div align=""center""><b>Гільдія Інжиніринг</b></div>
<div align=""center""><i>Контакти</i></div>
<u>Адреса:</u> м. Кіровоград, вул. Орджонікідзе, 7, Бізнес-центр ""Эльворти""<br>
<u>Телефони:</u> (052)227-71-40<br>
<a href=""http://geotop.com.ua/index_ua.php"" target=""_blank"">Офіційна веб-сторінка</a><br>
<u>E-mail:</u> a@geotop.com.ua<br>",,,,,,,
144,Ленд-В,"м. Кіровоград, просп. 50-річчя Жовтня, 12",48.502093,32.252765,"<div align=""center""><b>Ленд-В</b></div>
<div align=""center""><i>Контакти</i></div>
<u>Поштовий індекс:</u> 25013<br>
<u>Адреса:</u> м. Кіровоград, просп. 50-річчя Жовтня, 12, кв.61<br>
<u>Телефони:</u> +38(0522)321630<br>",,,,,,,
145,Альфа-Земпроект,"м. Кіровоград,вул. Велика Перспективна, 31/36",48.510356,32.267597,"<div align=""center""><b>Альфа-Земпроект</b></div>
<div align=""center""><i>Контакти</i></div>
<u>Поштовий індекс:</u> 25006<br>
<u>Адреса:</u> м. Кіровоград,вул. Велика Перспективна, 31/36, оф. 5<br>
<u>Телефони:</u> +380522304049<br>",,,,,,,
146,Кіровоградська аграрна біржа,"м. Кіровоград, вул. Тимірязєва, 84",48.506859,32.270353,"<div align=""center""><b>Товарна біржа ""Кіровоградська аграрна біржа""</b></div>
<div align=""center""><i>Контакти</i></div>
<u>Поштовий індекс:</u> 25006<br>
<u>Адреса:</u> м. Кіровоград, вул. Тимірязєва, 84<br>
<u>Телефони:</u> +38(0522)245800<br>
<a href=""http://www.birja.p-c.in.ua/index.php/"" target=""_blank"">Офіційна веб-сторінка</a><br>",,,,,,,
147,"Державне підприємство ""Кіровоградський науково-дослідний та проектний інститут землеустрою""","м. Кіровоград, вул. Академіка Корольова, 26",48.505449,32.235229,"<div align=""center""><b>Державне підприємство ""Кіровоградський науково-дослідний та проектний інститут землеустрою""</b></div>
<div align=""center""><i>Контакти</i></div>
<u>Поштовий індекс:</u> 25030<br>
<u>Адреса:</u> м. Кіровоград, вул. Академіка Корольова, 26<br>
<u>Телефони:</u> +38(052-2)36-56-99, +38(052-2)36-53-63<br>
<a href=""http://zempro.com.ua/"" target=""_blank"">Офіційна веб-сторінка</a><br>
<u>E-mail:</u> zempro55@ukr.net, zempro@yandex.ua<br>",,,,,,,
148,Оксамитсервіс,"м. Кіровоград, вул. Тимірязєва, 84",48.506760,32.270650,"<div align=""center""><b>Оксамитсервіс</b></div>
<div align=""center""><i>Контакти</i></div>
<u>Поштовий індекс:</u> 25006<br>
<u>Адреса:</u> м. Кіровоград, вул. Тимірязєва, 84<br>
<u>Телефони:</u> +38(0522)8066765950<br>",,,,,,,
149,ТЕКТОАРЕАЛ,"м. Кіровоград, вул. Гагаріна, 9",48.513409,32.270852,"<div align=""center""><b>ТЕКТОАРЕАЛ</b></div>
<div align=""center""><i>Контакти</i></div>
<u>Поштовий індекс:</u> 25006<br>
<u>Адреса:</u> м. Кіровоград, вул. Гагаріна, 9<br>
<u>Телефони:</u> (067)2879323<br>",,,,,,,
150,Кіровоградгеоінформ,"
м. Кіровоград, вулиця Арсенія Тарковського, 66/88",48.506537,32.268662,"<div align=""center""><b>Кіровоградгеоінформ</b></div>
<div align=""center""><i>Контакти</i></div>
<u>Поштовий індекс:</u> 25030<br>
<u>Адреса:</u> м. Кіровоград, вулиця Арсенія Тарковського, 66/88, кв.1<br>
<u>Телефони:</u> +380(522)223471, +380(68)4627448<br>",,,,,,,
151,Луганське комунальне землевпорядне підприємство,"м. Луганськ, вул. Карла Маркса, 40",48.575978 ,39.298484,"<div align=""center""><b>Луганське комунальне землевпорядне підприємство</b></div>
<div align=""center""><i>Контакти</i></div>
<u>Поштовий індекс:</u> 91000<br>
<u>Адреса:</u> м. Луганськ, вул. Карла Маркса, 40<br>
<u>Телефони:</u> +38(0642)52-51-86, 59-63-68<br>
<a href=""http://geodeziya.org.ua/"" target=""_blank"">Офіційна веб-сторінка</a><br>",,,,,,,
152,"Державне підприємство ""Луганський науково-дослідний та проектний інститут землеустрою""","м. Старобільськ, 
вул. Комунарів, 25",49.282517,38.896286,"<div align=""center""><b>Державне підприємство ""Луганський науково-дослідний та проектний інститут землеустрою""</b></div>
<div align=""center""><i>Контакти</i></div>
<u>Поштовий індекс:</u> 92700<br>
<u>Адреса:</u> Луганська обл., Старобільський район, м. Старобільськ, вул. Комунарів, 25<br>
<u>Телефони:</u> (0642)50-03-82<br>",,,,,,,
153,Асма-Луг,"м. Луганськ, вул. Ломоносова, 96",48.574610,39.360854,"<div align=""center""><b>Асма-Луг</b></div>
<div align=""center""><i>Контакти</i></div>
<u>Поштовий індекс:</u> 21034<br>
<u>Адреса:</u> м. Луганськ, вул. Ломоносова, 96, к. 33<br>
<u>Телефони:</u> (0642)49-68-96, 050-55-209-57<br>
<a href=""http://asma-lug.com.ua/"" target=""_blank"">Офіційна веб-сторінка</a><br>
<u>E-mail:</u> office@asma-lug.com.ua<br>",,,,,,,
154,"Консалтингова фірма ""Експерт""","м. Луганськ, вул. Оборонна, 24",48.550025,39.329169,"<div align=""center""><b>Консалтингова фірма ""Експерт""</b></div>
<div align=""center""><i>Контакти</i></div>
<u>Поштовий індекс:</u> 91033<br>
<u>Адреса:</u> м. Луганськ, вул. Оборонна, 24 оф. 20<br>
<u>Телефони:</u> +38(0642)505913, +38(050)2176076 +38(095)1600300<br>",,,,,,,
155,"Незалежна експертна оцінка ""НЕО""","м. Луганськ, вул. Пржевальського, 6",48.552622,39.256962,"<div align=""center""><b>Незалежна експертна оцінка ""НЕО""</b></div>
<div align=""center""><i>Контакти</i></div>
<u>Поштовий індекс:</u> 91007<br>
<u>Адреса:</u> м. Луганськ, вул. Пржевальського, 6<br>
<u>Телефони:</u> +38(050)9711721<br>",,,,,,,
156,Фаворит-Трейдінг,"м. Луганськ, вул. Курчатова, 11",48.555992,39.328051,"<div align=""center""><b>Фаворит-Трейдінг</b></div>
<div align=""center""><i>Контакти</i></div>
<u>Поштовий індекс:</u> 91031<br>
<u>Адреса:</u> м. Луганськ, вул. Курчатова, 11<br>
<u>Телефони:</u> 0642505779<br>",,,,,,,
157,"Землевпорядна фірма ""Континент-ЛВК""","м. Луганськ, вул. Леніна, 128",48.567872,39.292992,"<div align=""center""><b>Землевпорядна фірма ""Континент-ЛВК""</b></div>
<div align=""center""><i>Контакти</i></div>
<u>Поштовий індекс:</u> 91055<br>
<u>Адреса:</u> м. Луганськ, вул. Леніна, 128, кв. 16<br>
<u>Телефони:</u> (0642)526771<br>",,,,,,,
158,ЕКОРТ,"м. Луганськ, Поштова вул., 26",48.577553,39.300750,"<div align=""center""><b>ПП ""ЕКОРТ""</b></div>
<div align=""center""><i>Контакти</i></div>
<u>Поштовий індекс:</u> 91055<br>
<u>Адреса:</u> м. Луганськ, Поштова вул., 26, кв. 276<br>
<u>Телефони:</u> (0642)599636, (0642)345654<br>",,,,,,,
159,"Обласний центр впровадження ""Агроцентрнаука""","м. Луганськ, вул. Оборонна, 101Б",48.544565,39.330877,"<div align=""center""><b>Обласний центр впровадження ""Агроцентрнаука""</b></div>
<div align=""center""><i>Контакти</i></div>
<u>Поштовий індекс:</u> 91033<br>
<u>Адреса:</u> м. Луганськ, вул. Оборонна, 101Б<br>
<u>Телефони:</u> (0642)588323<br>",,,,,,,
160,"Державне підприємство ""Карпатигеодезкартографія""","м. Івано-Франківськ, вул. Академіка Сахарова, 23А",48.914248,24.713932,"<div align=""center""><b>Державне підприємство ""Карпатигеодезкартографія""</b></div>
<div align=""center""><i>Контакти</i></div>
<u>Адреса:</u> м. Івано-Франківськ, вул. Академіка Сахарова, 23А, 5 поверх<br>
<u>Телефони:</u> (0342)52-32-62, (0342)55-27-70<br>
<u>E-mail:</u> geodezy@com.if.ua<br>",,,,,,,
161,Івано-Франківська аграрна товарна біржа,"м. Івано-Франківськ, вул. Василіянок, 62А",48.929913,24.712268,"<div align=""center""><b>Івано-Франківська аграрна товарна біржа</b></div>
<div align=""center""><i>Контакти</i></div>
<u>Поштовий індекс:</u> 76019<br>
<u>Адреса:</u> м. Івано-Франківськ, вул. Василіянок, 62А<br>
<u>Телефони:</u> (0342) 50-46-66<br>
<a href=""http://atb.if.ua/"" target=""_blank"">Офіційна веб-сторінка</a><br>
<u>E-mail:</u> ifatb2003@ukr.net<br>",,,,,,,
162,Інформаційно-кадастровий центр,"м. Івано-Франківськ, вул. Гната Хоткевича, 46/1",48.922397,24.738303,"<div align=""center""><b>Інформаційно-кадастровий центр</b></div>
<div align=""center""><i>Контакти</i></div>
<u>Поштовий індекс:</u> 76002<br>
<u>Адреса:</u> м. Івано-Франківськ, вул. Гната Хоткевича, 46/1, к.15<br>
<u>Телефони:</u> +38(0342)781574<br>
<a href=""http://www.kadastr.if.ua/"" target=""_blank"">Офіційна веб-сторінка</a><br>
<u>E-mail:</u> info@kadastr.if.ua<br>",,,,,,,
163,Д.І.К.,"м. Коломия, просп. В`ячеслава Чорновола, 32А",48.529079,25.040722,"<div align=""center""><b>Д.І.К.</b></div>
<div align=""center""><i>Контакти</i></div>
<u>Поштовий індекс:</u> 78200<br>
<u>Адреса:</u> Івано-Франківська область, м. Коломия, просп. В`ячеслава Чорновола, 32А<br>
<u>Телефони:</u>  +38(03433)47532<br>",,,,,,,
164,Геопростір,"с. Микуличин, вул.Космонавтів, 21А",48.399004,24.599427,"<div align=""center""><b>Геопростір</b></div>
<div align=""center""><i>Контакти</i></div>
<u>Поштовий індекс:</u> 78590<br>
<u>Адреса:</u> Івано-Франківська область, Яремчанська міська рада, с. Микуличин, вул.Космонавтів, 21А<br>",,,,,,,
165,Західземпроект,"м. Івано-Франківськ, вул. Академіка Сахарова, 23",48.913994,24.712526,"<div align=""center""><b>Західземпроект</b></div>
<div align=""center""><i>Контакти</i></div>
<u>Поштовий індекс:</u> 76018<br>
<u>Адреса:</u> м. Івано-Франківськ, вул. Академіка Сахарова, 23<br>
<u>Телефони:</u> +38(0342)59-50-45 <br>
<u>E-mail:</u> tsinik@rambler.ru<br>",,,,,,,
166,Прикарпатський земельний центр,"м. Івано-Франківська область, вул. Бельведерська, 5, кв. 2",48.921652,24.706740,"<div align=""center""><b>Прикарпатський земельний центр</b></div>
<div align=""center""><i>Контакти</i></div>
<u>Поштовий індекс:</u> 76018<br>
<u>Адреса:</u> м. Івано-Франківська область, вул. Бельведерська, 5, кв. 2<br>
<u>Телефони:</u> (0342) 52 33 10, (050) 980 53 00, (096) 432 22 55<br>
<a href=""http://terram.com.ua/"" target=""_blank"">Офіційна веб-сторінка</a><br>
<u>E-mail:</u> terram.if@gmail.com<br>",,,,,,,
167,"Товарна біржа ""Західна-Універсальна""","м. Івано-Франківськ, вул. Горбачевського, 6",48.943883,24.691692,"<div align=""center""><b>Товарна біржа ""Західна-Універсальна""</b></div>
<div align=""center""><i>Контакти</i></div>
<u>Поштовий індекс:</u> 76018<br>
<u>Адреса:</u> м. Івано-Франківськ, вул. Горбачевського, 6<br>
<u>Телефони:</u> +38 (0342) 269721<br>",,,,,,,
168,Земексперт-ІФ,"м. Івано-Франківськ, вул. Незалежності, 179",48.916602,24.732122,"<div align=""center""><b>Земексперт-ІФ</b></div>
<div align=""center""><i>Контакти</i></div>
<u>Поштовий індекс:</u> 76018<br>
<u>Адреса:</u> м. Івано-Франківськ, вул. Незалежності, 179, кв.28<br>
<u>Телефони:</u> +38(03422)25861<br>",,,,,,,
169,Прикарпатський інформаційно-кадастровий центр,"смт. Брошнів-Осада, 22 Січня, 53",48.996159,24.183410,"<div align=""center""><b>Прикарпатський інформаційно-кадастровий центр</b></div>
<div align=""center""><i>Контакти</i></div>
<u>Поштовий індекс:</u> 77611<br>
<u>Адреса:</u> Івано-Франківська область, Рожнятівський район, смт. Брошнів-Осада, 22 Січня, 53<br>
<u>Телефони:</u> +38(03422)454431<br>",,,,,,,
170,"Державне підприємство ""Херсонгеоінформ""","м. Херсон, Миколаївське шосе, 26a",46.651269 ,32.596667,"<div align=""center""><b>Державне підприємство ""Херсонгеоінформ""</b></div>
<div align=""center""><i>Контакти</i></div>
<u>Поштовий індекс:</u> 73026<br>
<u>Адреса:</u> м. Херсон, Миколаївське шосе, 26a<br>
<u>Телефони:</u> 0-627-42-25-58, 0-627-42-25-52<br>
<a href=""http://www.geoinf.com.ua/index.html"" target=""_blank"">Офіційна веб-сторінка</a><br>
<u>E-mail:</u> info@geoinf.com.ua<br>",,,,,,,
171,Профіт-Херсон,"м. Херсон, вул. 9 Січня, 15",46.634335,32.611547,"<div align=""center""><b>Профіт-Херсон</b></div>
<div align=""center""><i>Контакти</i></div>
<u>Поштовий індекс:</u> 73000<br>
<u>Адреса:</u> м. Херсон, вул. 9 Січня, 15, оф. 205<br>
<u>Телефони:</u> (0552)49-21-06, (050)235-05-94, (098)470-03-66<br>
<a href=""http://profit-kherson.com/"" target=""_blank"">Офіційна веб-сторінка</a><br>
<u>E-mail:</u> info@profit-kherson.com<br>",,,,,,,
172,Консультаційно-правовий центр «Унікон»,"м. Херсон, Комсомольська вул., 24",46.632026 ,32.608948,"<div align=""center""><b>Консультаційно-правовий центр «Унікон»</b></div>
<div align=""center""><i>Контакти</i></div>
<u>Поштовий індекс:</u> 73000<br>
<u>Адреса:</u> м. Херсон, Комсомольська вул., 24, к. 15<br>
<u>Телефони:</u> +38(0552)221252, +38(0552)431481<br>",,,,,,,
173,"Товарна біржа ""Аграрна Біржа""","м. Херсон, вул. Дзержинського, 37",46.628977,32.611555,"<div align=""center""><b>Товарна біржа ""Аграрна Біржа""</b></div>
<div align=""center""><i>Контакти</i></div>
<u>Поштовий індекс:</u> 73010<br>
<u>Адреса:</u> м. Херсон, вул. 9 Січня, 15, оф. 205<br>
<u>Телефони:</u> +38(0552)32-57-11, 32-51-57, 32-53-60, 32-53-61, 32-53-65<br>
<a href=""http://www.agrobirja.com/"" target=""_blank"">Офіційна веб-сторінка</a><br>
<u>E-mail:</u> agrobir@hs.ukrtel.net, kapb@utel.net.ua<br>",,,,,,,
174,Державне підприємство «Херсонський науково-дослідний та проектний інститут землеустрою»,"м. Херсон, Комсомольська вул., 7",46.633218,32.614789,"<div align=""center""><b>Державне підприємство «Херсонський науково-дослідний та проектний інститут землеустрою»</b></div>
<div align=""center""><i>Контакти</i></div>
<u>Поштовий індекс:</u> 73000<br>
<u>Адреса:</u> м. Херсон, Комсомольська вул., 7<br>
<u>Телефони:</u> (0552)224381, (0552)226077, (0552)264502<br>
<u>E-mail:</u> hndiz@meta.ua<br>",,,,,,,
175,"Виробничо-комерційна фірма ""ІЗУМРУД""","м. Херсон, просп. Текстильників, 7",46.656064,32.644504,"<div align=""center""><b>Виробничо-комерційна фірма ""ІЗУМРУД""</b></div>
<div align=""center""><i>Контакти</i></div>
<u>Поштовий індекс:</u> 73000<br>
<u>Адреса:</u> м. Херсон, просп. Текстильників, 7<br>
<u>Телефони:</u> (0552)320740<br>
<a href=""http://www.izumrud.net.ua/"" target=""_blank"">Офіційна веб-сторінка</a><br>",,,,,,,
176,ХЕРСОН-ГІС,"м. Херсон, вул. 49-ї Гвардійської Дивізії, 7К3",46.666342,32.618439,"<div align=""center""><b>ХЕРСОН-ГІС</b></div>
<div align=""center""><i>Контакти</i></div>
<u>Поштовий індекс:</u> 73000<br>
<u>Адреса:</u> м. Херсон, вул. 49-ї Гвардійської Дивізії, 7К3<br>
<u>Телефони:</u> +38 (0552) 223985<br>",,,,,,,
177,Альфа -Експерт,"м. Берислав, вул. Губайдуліна, 3",46.833946,33.414872,"<div align=""center""><b>Альфа -Експерт</b></div>
<div align=""center""><i>Контакти</i></div>
<u>Поштовий індекс:</u> 74300<br>
<u>Адреса:</u> Херсонська область, Бериславський р-н, м. Берислав, вул. Губайдуліна, 3, оф.3<br>
<u>Телефони:</u> +38(066)4673009<br>",,,,,,,
178,Агро-Експерт,"смт. Нововоронцовка, вул.Гагаріна, 16",47.496572,33.916729,"<div align=""center""><b>Агро-Експерт</b></div>
<div align=""center""><i>Контакти</i></div>
<u>Поштовий індекс:</u> 74300<br>
<u>Адреса:</u> Херсонська область, смт. Нововоронцовка, вул.Гагаріна, 16<br>
<u>Телефони:</u> (05533)21464, (05533)22586 <br>",,,,,,,
179,ГІЛЬДІЯ ІНЖИНІРИНГ,"м. Херсон, вул. Перекопська, 20",46.641611 ,32.632081,"<div align=""center""><b>Гільдія Інжиніринг</b></div>
<div align=""center""><i>Контакти</i></div>
<u>Адреса:</u> м. Херсон, вул. Перекопська, 20<br>
<u>Телефони:</u> (055)239-85-56<br>
<a href=""http://geotop.com.ua/index_ua.php"" target=""_blank"">Офіційна веб-сторінка</a><br>
<u>E-mail:</u> a@geotop.com.ua<br>",,,,,,,
180,ГІЛЬДІЯ ІНЖИНІРИНГ,"м. Чернівці, Головна вул., 122",48.271643,25.946114,"<div align=""center""><b>Гільдія Інжиніринг</b></div>
<div align=""center""><i>Контакти</i></div>
<u>Поштовий індекс:</u> 58000<br>
<u>Адреса:</u> м. Чернівці, Головна вул., 122<br>
<u>Телефони:</u> 097-57-246-57<br>
<a href=""http://geotop.com.ua/index_ua.php"" target=""_blank"">Офіційна веб-сторінка</a><br>
<u>E-mail:</u> a@geotop.com.ua<br>",,,,,,,
181,"Державне підприємство ""Чернівецький геоінфоцентр""","м. Чернівці, вул. Кохановського, 5",48.289870,25.935474,"<div align=""center""><b>Державне підприємство ""Чернівецький геоінфоцентр""</b></div>
<div align=""center""><i>Контакти</i></div>
<u>Поштовий індекс:</u> 58000<br>
<u>Адреса:</u> м. Чернівці, вул. Кохановського, 5<br>
<u>Телефони:</u> (0372)511600,(0372)511800<br>
<u>E-mail:</u> cv-gic@yandex.ru, ev-gic@yandex.ru<br>",,,,,,,
182,"""ТА-ЕКСПЕРТ-СЕРВІС""","м. Чернівці, вул.І.Франка, будинок 21",48.289261,25.933572,"<div align=""center""><b>""ТА-ЕКСПЕРТ-СЕРВІС""</b></div>
<div align=""center""><i>Контакти</i></div>
<u>Поштовий індекс:</u> 58000<br>
<u>Адреса:</u> м. Чернівці, вул.І.Франка, будинок 21, квартира 2а<br>
<u>Телефони:</u> (0372)522829, 0505531333<br>
<u>E-mail:</u> 511423@ukr.net<br>",,,,,,,
183,Естімейт,"м.Чернівці, вул.Головна, буд. 61",48.290418,25.935189,"<div align=""center""><b>Естімейт</b></div>
<div align=""center""><i>Контакти</i></div>
<u>Поштовий індекс:</u> 58000<br>
<u>Адреса:</u> м.Чернівці, вул.Головна, буд. 61, офіс 8<br>
<u>Телефони:</u> (0372)520195, (037)2520195 <br>",,,,,,,
184,"Державне підприємство ""Чернівецький науково-дослідний та проектний інститут землеустрою""","м. Чернівці, вул. Червоноармійська, 194а",48.266961,25.925944,"<div align=""center""><b>Державне підприємство ""Чернівецький науково-дослідний та проектний інститут землеустрою""</b></div>
<div align=""center""><i>Контакти</i></div>
<u>Поштовий індекс:</u> 58013<br>
<u>Адреса:</u> м. Чернівці, вул. Червоноармійська, 194а, поверх №3, каб. №3<br>
<u>Телефони:</u>(0372)234351, (0372)233312<br>
<a href=""http://cvchiz.at.ua/"" target=""_blank"">Офіційна веб-сторінка</a><br>",,,,,,,
185,АРШИН,"смт. Кельменці, вул. Ольги Кобилянської, 5а",48.459775,26.835763,"<div align=""center""><b>АРШИН</b></div>
<div align=""center""><i>Контакти</i></div>
<u>Поштовий індекс:</u> 60100<br>
<u>Адреса:</u> Чернівецька область, Кельменецький район, смт Кельменцi, вул. Ольги Кобилянської, 5а<br>
<u>Телефони:</u> (03732)21906<br>",,,,,,,
186,ГАБІОНИ ЗАХІД Україна,"м. Чернівці, Руська вул., 248",48.272674,25.992583,"<div align=""center""><b>ГАБІОНИ ЗАХІД УКРАЇНА</b></div>
<div align=""center""><i>Контакти</i></div>
<u>Поштовий індекс:</u> 58023<br>
<u>Адреса:</u> м. Чернівці, Руська вул., 248<br>
<u>Телефони:</u> (0372)578144<br>",,,,,,,
187,БУКІНФОЗЕМ,"м. Чернівці, вул. Ольги Кобилянської, 41",48.287576,25.938369,"<div align=""center""><b>БУКІНФОЗЕМ</b></div>
<div align=""center""><i>Контакти</i></div>
<u>Поштовий індекс:</u> 58000<br>
<u>Адреса:</u> м. Чернівці, вул. Ольги Кобилянської, 41<br>
<u>Телефони:</u> (0372)552342<br>",,,,,,,
188,Землемір,"м. Заставна, вул. Незалежності, 100/3",48.5199, 25.845555,"<div align=""center""><b>Землемір</b></div>
<div align=""center""><i>Контакти</i></div>
<u>Поштовий індекс:</u> 59400<br>
<u>Адреса:</u> Чернівецька область, Заставнівський район, м. Заставна, вул. Незалежності, 100/3<br>
<u>Телефони:</u> (03737)22786<br>
<u>E-mail:</u> zemlemir@yandex.ru<br>",,,,,,,
189,ТЕРРА БУКОВИНА,"м. Чернівці, вул. Ольги Кобилянської, 13",48.290278,25.936010,"<div align=""center""><b>ТЕРРА БУКОВИНА</b></div>
<div align=""center""><i>Контакти</i></div>
<u>Поштовий індекс:</u> 58000<br>
<u>Адреса:</u> м. Чернівці, вул. Ольги Кобилянської, 13, у дворі<br>
<u>Телефони:</u> (0372)904061<br>
<u>E-mail:</u> zagorigor@mail.ru<br>",,,,,,,
190,"Державне підприємство ""Лубнигеодезія""","м. Лубни, вул. Радянська, 83",50.0188,32.987601,"<div align=""center""><b>Державне підприємство ""Лубнигеодезія""</b></div>
<div align=""center""><i>Контакти</i></div>
<u>Поштовий індекс:</u> 37502<br>
<u>Адреса:</u> Полтавська обл., м. Лубни, вул. Радянська, 83<br>
<u>Телефони:</u> +380(5361)7-26-67, +380(5361)7-26-68, +380(5361)7-31-62 <br>
<u>E-mail:</u> geo-lubny@yandex.ru<br>",,,,,,,
191,"Державне науково-виробниче підприємство ""Полтавагеодезцентр""","м. Полтава, вул. Паризької Комуни, 32",49.588657,34.559885,"<div align=""center""><b>Державне науково-виробниче підприємство ""Полтавагеодезцентр""</b></div>
<div align=""center""><i>Контакти</i></div>
<u>Поштовий індекс:</u> 36020<br>
<u>Адреса:</u> м. Полтава, вул. Паризької Комуни, 32<br>
<u>Телефони:</u> +380(5322)7-51-22, +380(532)50-24-55<br>
<u>E-mail:</u> polgeocentr@pi.net.ua<br>",,,,,,,
192,ГІЛЬДІЯ ІНЖИНІРИНГ,"м. Полтава, вул. Шевченка, 54",49.584941,34.545235,"<div align=""center""><b>Гільдія Інжиніринг</b></div>
<div align=""center""><i>Контакти</i></div>
<u>Адреса:</u> м. Полтава, вул. Шевченка, 54/22<br>
<u>Телефони:</u> (053)269-16-01<br>
<a href=""http://geotop.com.ua/index_ua.php"" target=""_blank"">Офіційна веб-сторінка</a><br>
<u>E-mail:</u> a@geotop.com.ua<br>",,,,,,,
193,"Державне підприємство ""Полтавський науково-дослідний та проектний інститут землеустрою""","м. Полтава, вул. Крамського, 9",49.585529,34.534848,"<div align=""center""><b>Державне підприємство ""Полтавський науково-дослідний та проектний інститут землеустрою""</b></div>
<div align=""center""><i>Контакти</i></div>
<u>Поштовий індекс:</u> 36039<br>
<u>Адреса:</u> м. Полтава, вул. Крамського, 9<br>
<u>Телефони:</u> (0532)27-25-22, (0532)22-19-37<br>
<u>E-mail:</u> systadmin@ukr.net<br>",,,,,,,
194,ЛАДА ІНФОРМ,"м. Полтава, Зіньківська вул., 6Б",49.602975,34.530868,"<div align=""center""><b>ЛАДА ІНФОРМ</b></div>
<div align=""center""><i>Контакти</i></div>
<u>Поштовий індекс:</u> 36029<br>
<u>Адреса:</u> м. Полтава, Зіньківська вул., 6Б, офіс 6<br>
<u>Телефони:</u> 0661765306, 0677933551, 0535292636<br>
<u>E-mail:</u> Lada-inform@mail.ru<br>",,,,,,,
195,УкрБізнесКонсалтінг,"м. Полтава,вул. Шевченка, 52",49.584747,34.546159,"<div align=""center""><b>УкрБізнесКонсалтінг</b></div>
<div align=""center""><i>Контакти</i></div>
<u>Поштовий індекс:</u> 36039<br>
<u>Адреса:</u> м. Полтава,вул. Шевченка, 52<br>
<u>Телефони:</u> +380503460939<br>
<a href=""http://www.biz-consalt.com/"" target=""_blank"">Офіційна веб-сторінка</a><br>
<u>E-mail:</u> info@biz-consalt.com<br>",,,,,,,
196,Регіон експертпроект,"м. Полтава, вул. Чапаєва, 9А",49.582087,34.541847,"<div align=""center""><b>Регіон експертпроект</b></div>
<div align=""center""><i>Контакти</i></div>
<u>Поштовий індекс:</u> 36039<br>
<u>Адреса:</u> м. Полтава, вул. Чапаєва, 9А, к. 44<br>
<u>Телефони:</u> +380504560979<br>",,,,,,,
197,ПОЛТАВАЗЕМЛЕУСТРІЙ,"м. Полтава, вул. Юрія Кондратюка, 3",49.564078,34.499852,"<div align=""center""><b>ПОЛТАВАЗЕМЛЕУСТРІЙ</b></div>
<div align=""center""><i>Контакти</i></div>
<u>Поштовий індекс:</u> 36028<br>
<u>Адреса:</u> м. Полтава, вул. Юрія Кондратюка, 3<br>
<u>Телефони:</u> (0532)508397, (099)3496217<br>",,,,,,,
198,Ексон,"м. Полтава, Жовтнева вул., 40",49.593413,34.551731,"<div align=""center""><b>Ексон</b></div>
<div align=""center""><i>Контакти</i></div>
<u>Поштовий індекс:</u> 36003<br>
<u>Адреса:</u> м. Полтава, Жовтнева вул., 40, кв.12<br>
<u>Телефони:</u> (0532)578397, (099)3778217<br>",,,,,,,
199,Імако,"м. Полтава, Червоноармійська вул., 3",49.591283,34.544946,"<div align=""center""><b>Імако</b></div>
<div align=""center""><i>Контакти</i></div>
<u>Поштовий індекс:</u> 36003<br>
<u>Адреса:</u> м. Полтава, Червоноармійська вул., 3<br>",,,,,,,
200,ГЕОМЕТ,"м. Полтава, вул. Володарського, 3",49.579741,34.546326,"<div align=""center""><b>ГЕОМЕТ</b></div>
<div align=""center""><i>Контакти</i></div>
<u>Поштовий індекс:</u> 36000<br>
<u>Адреса:</u> м. Полтава, вул. Володарського, 3<br>
<u>Телефони:</u> +380(532)655655<br>",,,,,,,
201,ПАРСЕЛ,"м. Полтава, вул. Комарова, 10",49.553453,34.505555,"<div align=""center""><b>ПАРСЕЛ</b></div>
<div align=""center""><i>Контакти</i></div>
<u>Поштовий індекс:</u> 36008<br>
<u>Адреса:</u> м. Полтава, вул. Комарова, 10<br>
<u>Телефони:</u> +38(050)6885645<br>",,,,,,,
202,"Державне підприємство ""Тернопільгеодезцентр""","м. Тернопіль, вул. Лисенка, 9",49.556926,25.601213,"<div align=""center""><b>Державне підприємство ""Тернопільгеодезцентр""</b></div>
<div align=""center""><i>Контакти</i></div>
<u>Поштовий індекс:</u> 46002<br>
<u>Адреса:</u> м. Тернопіль, вул. Лисенка, 9<br>
<u>Телефони:</u>(352)25-46-35<br>
<u>E-mail:</u> Kostiv@geodezcentr.te.ua<br>",,,,,,,
203,ГІЛЬДІЯ ІНЖИНІРИНГ,"м. Тернопіль, вул. Митрополита Шептицького, 26",49.544587,25.592632,"<div align=""center""><b>Гільдія Інжиніринг</b></div>
<div align=""center""><i>Контакти</i></div>
<u>Адреса:</u> м. Тернопіль, вул. Митрополита Шептицького, 26<br>
<u>Телефони:</u> 097-57-246-57<br>
<a href=""http://geotop.com.ua/index_ua.php"" target=""_blank"">Офіційна веб-сторінка</a><br>
<u>E-mail:</u> a@geotop.com.ua<br>",,,,,,,
204,"Державне підприємство ""Тернопільський науково-дослідний та проектний інститут землеустрою""","м. Тернопіль, вул. Лисенка, 20А",49.557439,25.602781,"<div align=""center""><b>Державне підприємство ""Тернопільський науково-дослідний та проектний інститут землеустрою""</b></div>
<div align=""center""><i>Контакти</i></div>
<u>Поштовий індекс:</u> 46002<br>
<u>Адреса:</u> м. Тернопіль, вул. Лисенка, 20А<br>
<u>Телефони:</u> (0352)52-67-76 <br>
<a href=""http://terland.gov.ua/32"" target=""_blank"">Офіційна веб-сторінка</a><br>
<u>E-mail:</u> terland@ukr.net<br>",,,,,,,
205,Оцінювач,"м. Тернопіль, вул. Крушельницької, 18",49.557344,25.595704,"<div align=""center""><b>Оцінювач</b></div>
<div align=""center""><i>Контакти</i></div>
<u>Адреса:</u> м. Тернопіль, вул. Крушельницької, 18, офіс 201<br>
<u>Телефони:</u> +38(0352)42-49-25<br>",,,,,,,
206,Землевласник-СЛ,"м. Тернопіль, просп. Степана Бандери, 34а",49.551940,25.610705,"<div align=""center""><b>Землевласник-СЛ</b></div>
<div align=""center""><i>Контакти</i></div>
<u>Поштовий індекс:</u> 46000<br>
<u>Адреса:</u> м. Тернопіль, просп. Степана Бандери, 34а<br>
<u>Телефони:</u> +38(0352)52-02-07<br>",,,,,,,
207,Компанія ІВР,"м. Тернопіль, вул. Дружби, 3",49.549903,25.573090,"<div align=""center""><b>Компанія ІВР</b></div>
<div align=""center""><i>Контакти</i></div>
<u>Поштовий індекс:</u> 46002<br>
<u>Адреса:</u> м. Тернопіль, вул. Дружби, 3, кв. 49<br>
<u>Телефони:</u> (0352)231799<br>",,,,,,,
208,Галицькі землі,"м. Тернопіль, вул. Руська, 25",49.551475,25.593385,"<div align=""center""><b>Галицькі землі</b></div>
<div align=""center""><i>Контакти</i></div>
<u>Поштовий індекс:</u> 46001<br>
<u>Адреса:</u> м. Тернопіль, вул. Руська, 25<br>
<u>Телефони:</u> 0352236016<br>",,,,,,,
209,Тернопільська агропромислова біржа,"м. Тернопіль, вул. Князя Острозького, 14",49.549116,25.594944,"<div align=""center""><b>Тернопільська агропромислова біржа</b></div>
<div align=""center""><i>Контакти</i></div>
<u>Поштовий індекс:</u> 46001<br>
<u>Адреса:</u> м. Тернопіль, вул. Князя Острозького, 14, кв. 305<br>
<u>Телефони:</u> 0352236016<br>
<a href=""http://http://tapb.org.ua/"" target=""_blank"">Офіційна веб-сторінка</a><br>
<u>E-mail:</u> tapb@ukrpost.net<br>",,,,,,,
210,Матек,"м. Тернопіль,вул. Митрополита Шептицького, 3",49.548002,25.594191,"<div align=""center""><b>Матек</b></div>
<div align=""center""><i>Контакти</i></div>
<u>Поштовий індекс:</u> 46008<br>
<u>Адреса:</u> м. Тернопіль,вул. Митрополита Шептицького, 3<br>
<u>Телефони:</u> 0352236016<br>
<a href=""http://www.matek.ternopil.ua/"" target=""_blank"">Офіційна веб-сторінка</a><br>
<u>E-mail:</u> info@matek.ternopil.ua<br>",,,,,,,
211,Українське земельне агентство,"м. Тернопіль,вул. Антона Монастирського, 44",49.545791,25.614107,"<div align=""center""><b>Українське земельне агентство</b></div>
<div align=""center""><i>Контакти</i></div>
<u>Поштовий індекс:</u> 46011<br>
<u>Адреса:</u> м. Тернопіль,вул. Антона Монастирського, 44<br>
<u>Телефони:</u> 0352236016<br>
<a href=""http://dazru.gov.ua/"" target=""_blank"">Офіційна веб-сторінка</a><br>",,,,,,,
212,"Державне науково-виробниче підприємство ""Рівнегеокадастр""","м. Рівне, вул. 16-го Липня, 38",50.615396,26.249542,"<div align=""center""><b>Державне науково-виробниче підприємство ""Рівнегеокадастр""</b></div>
<div align=""center""><i>Контакти</i></div>
<u>Поштовий індекс:</u> 33000<br>
<u>Адреса:</u> м. Рівне, вул. 16-го Липня, 38<br>
<u>Телефони:</u>(0362)22-20-28, (0362)22-60-38<br>
<u>E-mail:</u> rivnegeo@rivne.com<br>",,,,,,,
213,"Експертно-консалтингова фірма ""Приватна справа""","м. Рівне, вул. Гур`єва, 13",50.623658,26.226907,"<div align=""center""><b>Експертно-консалтингова фірма ""Приватна справа""</b></div>
<div align=""center""><i>Контакти</i></div>
<u>Поштовий індекс:</u> 33000<br>
<u>Адреса:</u>м. Рівне, вул. Гур`єва, 13<br>
<u>Телефони:</u>(0362)628559<br>
<u>E-mail:</u> sprava@rivne.com<br>",,,,,,,
214,"Державне підприємство ""Рівненський науково-дослідний та проектний інститут землеустрою""","м. Рівне, вул. Симона Петлюри, 37",50.625122,26.250729,"<div align=""center""><b>Державне підприємство ""Рівненський науково-дослідний та проектний інститут землеустрою""</b></div>
<div align=""center""><i>Контакти</i></div>
<u>Поштовий індекс:</u> 33000<br>
<u>Адреса:</u> м. Рівне, вул. Симона Петлюри, 37<br>
<u>Телефони:</u>(0362)22-67-14, (0362)26-46-69<br>
<a href=""http://rivneoblzem.gov.ua/"" target=""_blank"">Офіційна веб-сторінка</a><br>
<u>E-mail:</u> rivne_iz@ukr.net<br>",,,,,,,
215," Оціночна Компанія ""Техносервіс""","м. Рівне, вул. Гагаріна, 57",50.632949,26.272364,"<div align=""center""><b>Оціночна Компанія ""Техносервіс""</b></div>
<div align=""center""><i>Контакти</i></div>
<u>Поштовий індекс:</u> 33022<br>
<u>Адреса:</u> м. Рівне, вул. Гагаріна, 57<br>
<u>Телефони:</u>(097) 47-397-93, (066) 48-037-23<br>
<u>E-mail:</u> tehserv@ua.fm<br>",,,,,,,
216,"НІКОС ""Оціночна компанія""","м. Рівне, вул. 16-го Липня, 32",50.616592,26.249709,"<div align=""center""><b>НІКОС ""Оціночна компанія""</b></div>
<div align=""center""><i>Контакти</i></div>
<u>Поштовий індекс:</u> 33028<br>
<u>Адреса:</u> м. Рівне, вул. 16-го Липня, 32<br>
<u>Телефони:</u>(0362)62-35-30<br>
<a href=""http://www.natalinikoc.zz.mu/"" target=""_blank"">Офіційна веб-сторінка</a><br>
<u>E-mail:</u> nikos.ok@rambler.ru, tovnikos.ok@gmail.com<br>",,,,,,,
217,Рівненська товарна біржа,"м. Рівне, вул. Гетьмана мазепи, 4а/6а",50.622665,26.247922,"<div align=""center""><b>Рівненська товарна біржа</b></div>
<div align=""center""><i>Контакти</i></div>
<u>Поштовий індекс:</u> 33028<br>
<u>Адреса:</u> м. Рівне вул. Гетьмана мазепи, 4а/6а, 4 пов.<br>
<u>Телефони:</u>+380362433407; +380676761474<br>
<a href=""http://price.org.ua/"" target=""_blank"">Офіційна веб-сторінка</a><br>",,,,,,,
218,"Експертна фірма ""Нива-Експерт""","м. Рівне, вул. Драгоманова, 27",50.613718,26.243121,"<div align=""center""><b>Експертна фірма ""Нива-Експерт""</b></div>
<div align=""center""><i>Контакти</i></div>
<u>Поштовий індекс:</u> 33028<br>
<u>Адреса:</u> м. Рівне, вул. Драгоманова, 27<br>
<u>Телефони:</u>(0362) 62-05-27, (0362) 22-67-49<br>",,,,,,,
219,Академія Незалежної оцінки,"м. Рівне, вул. Орлова, 36",50.617742,26.278846,"<div align=""center""><b>Академія Незалежної оцінки</b></div>
<div align=""center""><i>Контакти</i></div>
<u>Поштовий індекс:</u> 33027<br>
<u>Адреса:</u> м. Рівне, вул. Орлова, 36<br>
<u>Телефони:</u>(0362) 67-67-49<br>",,,,,,,
220,Оцінка,"м. Рівне, вул. Шевченка, 45",50.623029,26.243294,"<div align=""center""><b>Оцінка</b></div>
<div align=""center""><i>Контакти</i></div>
<u>Поштовий індекс:</u> 33013<br>
<u>Адреса:</u> м. Рівне, вул. Шевченка, 45<br>
<u>Телефони:</u>(0362)63-35-75<br>",,,,,,,
221,ГІЛЬДІЯ ІНЖИНІРИНГ,"м. Рівне, вул. Данила Галицького, 19",50.609153,26.284962,"<div align=""center""><b>Гільдія Інжиніринг</b></div>
<div align=""center""><i>Контакти</i></div>
<u>Адреса:</u> м. Рівне, вул. Данила Галицького, 19<br>
<u>Телефони:</u> 097-57-246-57<br>
<a href=""http://geotop.com.ua/index_ua.php"" target=""_blank"">Офіційна веб-сторінка</a><br>
<u>E-mail:</u> a@geotop.com.ua<br>",,,,,,,
222,ЕКСПЕРТ-РІВНЕ-КОНСАЛТ,"м. Рівне, просп. Миру, 15",50.624484,26.248037,"<div align=""center""><b>ЕКСПЕРТ-РІВНЕ-КОНСАЛТ</b></div>
<div align=""center""><i>Контакти</i></div>
<u>Поштовий індекс:</u> 33013<br>
<u>Адреса:</u> м. Рівне, просп. Миру, 15<br>
<u>Телефони:</u> (0362)26-77-96, (0362)26-37-37, (0362)26-37-22<br>
<a href=""http://www.expert-rivne.com/"" target=""_blank"">Офіційна веб-сторінка</a><br>
<u>E-mail:</u> expert.zemlia@gmail.com<br>",,,,,,,
223,ГарантАвтоЗахід,"м. Рівне, вул. Курчатова, 26",50.600303,26.281326,"<div align=""center""><b>ГарантАвтоЗахід</b></div>
<div align=""center""><i>Контакти</i></div>
<u>Адреса:</u> м. Рівне, вул. Курчатова, 26<br>
<u>Телефони:</u> (0362)64-24-10, (067)363-50-33 <br>
<a href=""http://gaz.rv.ua/index.php/ua/"" target=""_blank"">Офіційна веб-сторінка</a><br>
<u>E-mail:</u> volsta@ukr.net<br>",,,,,,,
224,Десна-Експерт-М,"м. Чернігів, пр-т Перемоги 20",51.487675,31.275971,"<div align=""center""><b>Десна-Експерт-М</b></div>
<div align=""center""><i>Контакти</i></div>
<u>Поштовий індекс:</u> 14017<br>
<u>Адреса:</u> м. Чернігів, пр-т Перемоги 20, 3 поверх,
офіс 6<br>
<u>Телефони:</u> (0462) 64-00-84 <br>
<a href=""http://desna-expert.com.ua/"" target=""_blank"">Офіційна веб-сторінка</a><br>
<u>E-mail:</u> Desna-Korykovka@mail.ru<br>",,,,,,,
225,ГІЛЬДІЯ ІНЖИНІРИНГ,"м. Чернігів, просп. Перемоги, 64",51.489680,31.286823,"<div align=""center""><b>Гільдія Інжиніринг</b></div>
<div align=""center""><i>Контакти</i></div>
<u>Адреса:</u> м. Чернігів, просп. Перемоги, 64<br>
<u>Телефони:</u> (046)261-14-16<br>
<a href=""http://geotop.com.ua/index_ua.php"" target=""_blank"">Офіційна веб-сторінка</a><br>
<u>E-mail:</u> a@geotop.com.ua<br>",,,,,,,
226,"Державне підприємство ""Чернігівський науково-дослідний та проектний інститут землеустрою""","м. Чернігів, вул. П`ятницька, 11А",51.494840,31.298463,"<div align=""center""><b>Державне підприємство ""Чернігівський науково-дослідний та проектний інститут землеустрою""</b></div>
<div align=""center""><i>Контакти</i></div>
<u>Поштовий індекс:</u> 14000<br>
<u>Адреса:</u> м. Чернігів, вул. П`ятницька, 11А<br>
<u>Телефони:</u>(0462) 67-52-28, (0462) 67-52-27<br>",,,,,,,
227,Візер,"м. Чернігів, просп. Перемоги, 103",51.496675,31.300121,"<div align=""center""><b>Візер</b></div>
<div align=""center""><i>Контакти</i></div>
<u>Поштовий індекс:</u> 14000<br>
<u>Адреса:</u> м. Чернігів, пр-т Перемоги, 103, к.29<br>
<u>Телефони:</u>+38(0462)167298 <br>",,,,,,,
228,"Універсальна товарна біржа ""Соціум""","
м. Чернігів, пр-т Миру, 68",51.502788,31.281952,"<div align=""center""><b>Універсальна товарна біржа ""Соціум""</b></div>
<div align=""center""><i>Контакти</i></div>
<u>Поштовий індекс:</u> 14005<br>
<u>Адреса:</u> м. Чернігів, пр-т Миру, 68 к.1508<br>
<u>Телефони:</u>+38(0462)167386<br>",,,,,,,
229,Геоінформпроект,"м.Чернігів, вул. Бєлова, 7",51.521762,31.318406,"<div align=""center""><b>Геоінформпроект</b></div>
<div align=""center""><i>Контакти</i></div>
<u>Поштовий індекс:</u> 14032<br>
<u>Адреса:</u> м.Чернігів, вул. Бєлова, 7<br>
<u>Телефони:</u>+38 (0462) 670337<br>",,,,,,,
230,Гео Граф,"м. Чернігів, вул. Гетьмана Полуботка, 74",51.501267,31.315609,"<div align=""center""><b>Гео Граф</b></div>
<div align=""center""><i>Контакти</i></div>
<u>Поштовий індекс:</u> 14027<br>
<u>Адреса:</u> м. Чернігів, вул. Гетьмана Полуботка, 74<br>
<u>Телефони:</u> +380(462)62-92-50<br>
<a href=""http://geo-graf.at.ua/"" target=""_blank"">Офіційна веб-сторінка</a><br>",,,,,,,
231,СІВЕРЕКСПЕРТ,"м. Чернігів, вул. Мстиславська, буд. 9",51.493595,31.303403,"<div align=""center""><b>СІВЕРЕКСПЕРТ</b></div>
<div align=""center""><i>Контакти</i></div>
<u>Поштовий індекс:</u> 14000<br>
<u>Адреса:</u> м.Чернігів, вул. Мстиславська, буд. 9<br>
<u>Телефони:</u> 0634187872<br>
<u>E-mail:</u> siverexpert@mail.ru, siverexpert@ukr.net<br>",,,,,,,
232,Аксіома,"м. Чернігів, проспект Миру, 53",51.500124,31.287200,"<div align=""center""><b>Аксіома</b></div>
<div align=""center""><i>Контакти</i></div>
<u>Поштовий індекс:</u> 14005<br>
<u>Адреса:</u>м.Чернігів, проспект Миру, 53<br>
<u>Телефони:</u> 0462 971 597<br>
<a href=""http://www.aksioma.cn.ua/index.php?id=12"" target=""_blank"">Офіційна веб-сторінка</a><br>
<u>E-mail:</u> aksiomach@mail.ru<br>",,,,,,,
233,ЧернігівВодоПроект,"м. Чернігів, просп. Перемоги, 39",51.487583,31.279200,"<div align=""center""><b>ЧернігівВодоПроект</b></div>
<div align=""center""><i>Контакти</i></div>
<u>Поштовий індекс:</u> 14005<br>
<u>Адреса:</u>м. Чернігів, просп. Перемоги, 39<br>
<u>Телефони:</u> +380(4622)44011<br>",,,,,,,
234,"Державне підприємство ""Сумигеодезкартографія""","м. Суми, вул. Герасима Кондратьєва, 98А",50.890013,34.781392,"<div align=""center""><b>Державне підприємство ""Сумигеодезкартографія""</b></div>
<div align=""center""><i>Контакти</i></div>
<u>Поштовий індекс:</u> 40021<br>
<u>Адреса:</u> м. Суми, вул. Герасима Кондратьєва, 98А<br>
<u>Телефони:</u> +38(0542)628-832, +38(0542)619-681<br>
<a href=""http://www.sgk.inf.ua/"" target=""_blank"">Офіційна веб-сторінка</a><br>
<u>E-mail:</u> sgk@map.sumy.ua<br>",,,,,,,
235,Консалт-С,"м. Суми, проспект Курський, 141",50.945717,34.773480,"<div align=""center""><b>Консалт-С</b></div>
<div align=""center""><i>Контакти</i></div>
<u>Поштовий індекс:</u> 40020<br>
<u>Адреса:</u> м. Суми, проспект Курський, 141<br>
<u>Телефони:</u> 0506883460<br>",,,,,,,
236,Альянс-2000,"м. Суми, Петропавлівська вул., 70",50.903461,34.791837,"<div align=""center""><b>Альянс-2000</b></div>
<div align=""center""><i>Контакти</i></div>
<u>Поштовий індекс:</u> 40030<br>
<u>Адреса:</u> м. Суми, Петропавлівська вул., 70<br>
<u>Телефони:</u> (0542)770778<br>
<a href=""www.uto.sumy.ua/"" target=""_blank"">Офіційна веб-сторінка</a><br>
<u>E-mail:</u> alians2000@utel.net.ua<br>",,,,,,,
237,ГІЛЬДІЯ ІНЖИНІРИНГ,"м. Суми, Кооперативна вул., 19",50.912408,34.799142,"<div align=""center""><b>Гільдія Інжиніринг</b></div>
<div align=""center""><i>Контакти</i></div>
<u>Адреса:</u> м. Суми, Кооперативна вул., 19<br>
<u>Телефони:</u> 063-179-86-45<br>
<a href=""http://geotop.com.ua/index_ua.php"" target=""_blank"">Офіційна веб-сторінка</a><br>
<u>E-mail:</u> a@geotop.com.ua<br>",,,,,,,
238,Сумиагропромбіржа,"м. Суми, Першотравнева вул., 29",50.907173,34.789342,"<div align=""center""><b>Сумиагропромбіржа</b></div>
<div align=""center""><i>Контакти</i></div>
<u>Поштовий індекс:</u> 40004<br>
<u>Адреса:</u> м. Суми, Першотравнева вул., 29<br>
<u>Телефони:</u> (0542)660-435<br>
<a href=""http://stb.sumy.ua/"" target=""_blank"">Офіційна веб-сторінка</a><br>
<u>E-mail:</u> sapb@stb.sumy.ua<br>",,,,,,,
239,Кадастр-С,"м.Суми, вул. Горобинова, 21",50.94426,34.728932,"<div align=""center""><b>Кадастр-С</b></div>
<div align=""center""><i>Контакти</i></div>
<u>Поштовий індекс:</u> 40030<br>
<u>Адреса:</u> м.Суми, вул. Горобинова, 21<br>
<u>Телефони:</u>+38(0542)224706<br>",,,,,,,
240,Гео-Бізнес,"м. Суми,вул. Малиновського, 12",50.898530,34.785266,"<div align=""center""><b>Гео-Бізнес</b></div>
<div align=""center""><i>Контакти</i></div>
<u>Поштовий індекс:</u> 40001<br>
<u>Адреса:</u> м. Суми,вул. Малиновського, 12<br>
<u>Телефони:</u> +38 (542) 78-75-71<br>",,,,,,,
241,"Оціночна фірма ""Волфа""","м.Суми, вул.Горького, 30",50.917895,34.800361,"<div align=""center""><b>Оціночна фірма ""Волфа""</b></div>
<div align=""center""><i>Контакти</i></div>
<u>Поштовий індекс:</u> 40011<br>
<u>Адреса:</u> м.Суми, вул.Горького, 30<br>
<u>Телефони:</u> 0542607659<br>",,,,,,,
242,Суми-Недра,"м. Суми, Кленовий провулок, 15",50.947949,34.74856,"<div align=""center""><b>Суми-Недра</b></div>
<div align=""center""><i>Контакти</i></div>
<u>Поштовий індекс:</u> 40019<br>
<u>Адреса:</u> м. Суми, Кленовий провулок, 15<br>
<u>Телефони:</u> +38 (0542) 630184, +38 (0542) 240152, +38 (050) 3015911<br>",,,,,,,
243,Сумський Проект,"м. Суми, Привокзальна пл., 9",50.923558,34.805741,"<div align=""center""><b>Сумський Проект</b></div>
<div align=""center""><i>Контакти</i></div>
<u>Поштовий індекс:</u> 40011<br>
<u>Адреса:</u> м. Суми, Привокзальна пл., 9<br>
<u>Телефони:</u>+38 (0542) 251394, +38 (0542) 251293, +38 (0542) 215609<br>",,,,,,,
244,"Державне підприємство ""Волинський науково-дослідний та проектний інститут землеустрою""","м. Луцьк, вул. Винниченка, 63",50.751401,25.329447,"<div align=""center""><b>Державне підприємство ""Волинський науково-дослідний та проектний інститут землеустрою""</b></div>
<div align=""center""><i>Контакти</i></div>
<u>Поштовий індекс:</u> 43021<br>
<u>Адреса:</u> м. Луцьк, вул. Винниченка, 63<br>
<u>Телефони:</u> (0332)24-41-71<br>",,,,,,,
245,ГІЛЬДІЯ ІНЖИНІРИНГ,"м. Луцьк, Ковельська вул., 22",50.743078,25.313295,"<div align=""center""><b>Гільдія Інжиніринг</b></div>
<div align=""center""><i>Контакти</i></div>
<u>Поштовий індекс:</u> 43001<br>
<u>Адреса:</u> м. Луцьк, Ковельська вул., 22<br>
<u>Телефони:</u> 0332 776 489<br>
<a href=""http://geotop.com.ua/index_ua.php"" target=""_blank"">Офіційна веб-сторінка</a><br>
<u>E-mail:</u> a@geotop.com.ua<br>",,,,,,,
246,Реформатор,"м. Луцьк, вул. Симиренка, 40",50.750657,25.284551,"<div align=""center""><b>Реформатор</b></div>
<div align=""center""><i>Контакти</i></div>
<u>Поштовий індекс:</u> 43000<br>
<u>Адреса:</u> м. Луцьк, вул. Симиренка, 40<br>
<u>Телефони:</u> 0332 776 489<br>",,,,,,,
247,Ірта Консалтинг,"м. Луцьк, вул. 8-го Березня, 11А",50.750678,25.341487,"<div align=""center""><b>Ірта Консалтинг</b></div>
<div align=""center""><i>Контакти</i></div>
<u>Поштовий індекс:</u> 43000<br>
<u>Адреса:</u> м. Луцьк, вул. 8-го Березня, 11А<br>
<u>Телефони:</u>(067)502-43-66<br>",,,,,,,
248,Олді,"м. Луцьк, вул. Винниченка, 67",50.751904,25.329468,"<div align=""center""><b>Олді</b></div>
<div align=""center""><i>Контакти</i></div>
<u>Поштовий індекс:</u> 43021<br>
<u>Адреса:</u> м. Луцьк, вул. Винниченка, 67, офіс 402<br>
<u>Телефони:</u> +380(332)246464 <br>
<u>E-mail:</u> tovoldi@rambler.ru<br>",,,,,,,
249,Технічне бюро кадастру,"м. Луцьк,вул. Винниченка, 65",50.751678,25.329030,"<div align=""center""><b>Технічне бюро кадастру</b></div>
<div align=""center""><i>Контакти</i></div>
<u>Поштовий індекс:</u> 43000<br>
<u>Адреса:</u> м. Луцьк,вул. Винниченка, 65<br>
<u>Телефони:</u> + 380(332)77-01-88<br>
<a href=""http://cadastr.lutsk.ua/"" target=""_blank"">Офіційна веб-сторінка</a><br>
<u>E-mail:</u> tbk@cadastr.lutsk.ua<br>",,,,,,,
250,ГЦНТП-ПЛЮС,"м. Луцьк, Ковельська вул., 1",50.740915,25.316488,"<div align=""center""><b>ГЦНТП-ПЛЮС</b></div>
<div align=""center""><i>Контакти</i></div>
<u>Поштовий індекс:</u> 43016<br>
<u>Адреса:</u> м. Луцьк, Ковельська вул., 1<br>
<u>Телефони:</u> (0332)774405<br>",,,,,,,
251,Волинська Торгово-промислова палата,"м.Луцьк, вул.Яровиця, 18",50.753784,25.326275,"<div align=""center""><b>Волинська Торгово-промислова палата</b></div>
<div align=""center""><i>Контакти</i></div>
<u>Поштовий індекс:</u> 43021<br>
<u>Адреса:</u> м.Луцьк, вул.Яровиця, 18<br>
<a href=""http://www.tpp.lutsk.ua/"" target=""_blank"">Офіційна веб-сторінка</a><br>
<u>Телефони:</u> 03322 40555<br>",,,,,,,
252,ГазПроектМонтаж,"м. Луцьк, вул. Винниченка, 69",50.752585,25.329767,"<div align=""center""><b>ГазПроектМонтаж</b></div>
<div align=""center""><i>Контакти</i></div>
<u>Поштовий індекс:</u> 43021<br>
<u>Адреса:</u> м. Луцьк, вул. Винниченка, 69<br>
<a href=""http://www.tpp.lutsk.ua/"" target=""_blank"">Офіційна веб-сторінка</a><br>
<u>Телефони:</u>+380(332)784962<br>
<u>E-mail:</u> gazproektmontag_2014@mail.ru<br>",,,,,,,
253,Інститут земельних відносин,"м. Луцьк, вул. Шевченка, 35",50.746529,25.308505,"<div align=""center""><b>Інститут земельних відносин</b></div>
<div align=""center""><i>Контакти</i></div>
<u>Поштовий індекс:</u>43025<br>
<u>Адреса:</u> м. Луцьк, вул. Шевченка, 35<br>
<u>Телефони:</u>+380 (332) 242231<br>",,,,,,,
254,"Державне підприємство ""Хмельницький науково-дослідний та проектний інститут землеустрою""","м. Хмельницький, Інститутська вул., 4/1",49.407243,26.965855,"<div align=""center""><b>Державне підприємство ""Хмельницький науково-дослідний та проектний інститут землеустрою""</b></div>
<div align=""center""><i>Контакти</i></div>
<u>Поштовий індекс:</u> 29016<br>
<u>Адреса:</u> м. Хмельницький, Інститутська вул., 4/1<br>
<u>Телефони:</u>(0382) 72-33-01<br>",,,,,,,
255,Контрактовий дім,"м.Хмельницький вул.Кам`янецька, 82",49.418546,26.974866,"<div align=""center""><b>Контрактовий дім</b></div>
<div align=""center""><i>Контакти</i></div>
<u>Поштовий індекс:</u> 29000<br>
<u>Адреса:</u> м.Хмельницький вул.Кам`янецька, буд. 82, кв. 36<br>
<u>Телефони:</u>097 251 9843<br>",,,,,,,
256,Подільський земельний центр,"м. Хмельницький, вул. Гагаріна, 5",49.418684,26.977193,"<div align=""center""><b>Подільський земельний центр</b></div>
<div align=""center""><i>Контакти</i></div>
<u>Поштовий індекс:</u> 29000<br>
<u>Адреса:</u>м. Хмельницький, вул. Гагаріна, 5<br>
<u>Телефони:</u>097 251 9843<br>",,,,,,,
257,ГІЛЬДІЯ ІНЖИНІРИНГ,"м. Хмельницький, вул. Рибалка, 3/1",49.438042,26.982391,"<div align=""center""><b>Гільдія Інжиніринг</b></div>
<div align=""center""><i>Контакти</i></div>
<u>Поштовий індекс:</u> 29000<br>
<u>Адреса:</u> м. Хмельницький, вул. Рибалка, 3/1<br>
<u>Телефони:</u> 097-57-246-57<br>
<a href=""http://geotop.com.ua/index_ua.php"" target=""_blank"">Офіційна веб-сторінка</a><br>
<u>E-mail:</u> a@geotop.com.ua<br>",,,,,,,
258,"Хмельницька товарна біржа""НАЗАРЕТ""","м.Хмельницький, вул.Зарічанська, 34",49.436358,26.987030,"<div align=""center""><b>Хмельницька товарна біржа""НАЗАРЕТ""</b></div>
<div align=""center""><i>Контакти</i></div>
<u>Поштовий індекс:</u> 29000<br>
<u>Адреса:</u> м.Хмельницький, вул.Зарічанська, 34<br>
<u>Телефони:</u> (067) 383-49-13, (067) 380-40-95<br>
<a href=""http://utsb.kiev.ua/ukr/"" target=""_blank"">Офіційна веб-сторінка</a><br>",,,,,,,
259,Поділляземінвест,"м.Хмельницький, вул.Прибузька, 10",49.429061,26.989975,"<div align=""center""><b>Поділляземінвест</b></div>
<div align=""center""><i>Контакти</i></div>
<u>Поштовий індекс:</u> 29000<br>
<u>Адреса:</u> м.Хмельницький, вул. Прибузька, 10<br>
<u>Телефони:</u> 0673802971, 0382 752 561<br>",,,,,,,
260,Поділляінвентарбюро,"м. Хмельницький, вул. Герцена, 10",49.417658,26.977470,"<div align=""center""><b>Поділляінвентарбюро</b></div>
<div align=""center""><i>Контакти</i></div>
<u>Поштовий індекс:</u> 29000<br>
<u>Адреса:</u> м. Хмельницький, вул. Герцена, 10<br>
<u>Телефони:</u> 0382 702 065<br>",,,,,,,
261,Хмельницькгеопроект,"м. Хмельницький, Кам`янецька вул., 122",49.402870,26.961540,"<div align=""center""><b>Хмельницькгеопроект</b></div>
<div align=""center""><i>Контакти</i></div>
<u>Поштовий індекс:</u> 29000<br>
<u>Адреса:</u> м.Хмельницький, вул. Кам`янецька,буд. 122(Бізнес центр ""Оріт""), офіс 305 <br>
<u>Телефони:</u> (0382)72-90-05 <br>
<a href=""http://geoland.at.ua/"" target=""_blank"">Офіційна веб-сторінка</a><br>
<u>E-mail:</u> xmgeoproekt@ukr.net<br>",,,,,,,
262,Діорит Плюс 1,"м. Хмельницький, Подільська вул., 22/2",49.426830,26.978502,"<div align=""center""><b>Діорит Плюс 1</b></div>
<div align=""center""><i>Контакти</i></div>
<u>Поштовий індекс:</u> 29000<br>
<u>Адреса:</u> м. Хмельницький, Подільська вул., 22/2<br>
<u>Телефони:</u> 0382654808<br>
<u>E-mail:</u>dioritplys1@mail.ru<br>",,,,,,,
263,Спецбудмеханізація,"м. Хмельницький, вул. Геологів, 7",49.419432,26.953741,"<div align=""center""><b>Спецбудмеханізація</b></div>
<div align=""center""><i>Контакти</i></div>
<u>Поштовий індекс:</u> 29000<br>
<u>Адреса:</u> м. Хмельницький, вул. Геологів, 7<br>
<u>Телефони:</u> (0382)660792, (0382)699809<br>
<u>E-mail:</u> xmgeoproekt@ukr.net<br>",,,,,,,
264,ГІЛЬДІЯ ІНЖИНІРИНГ,"м. Черкаси, вул. Героїв Сталінграду, 22А",49.434410,32.092812,"<div align=""center""><b>Гільдія Інжиніринг</b></div>
<div align=""center""><i>Контакти</i></div>
<u>Поштовий індекс:</u> 29000<br>
<u>Адреса:</u> м. Черкаси, вул. Героїв Сталінграду, 22А, Офісний центр ""Митниця""<br>
<u>Телефони:</u> (047)250-86-89<br>
<a href=""http://geotop.com.ua/index_ua.php"" target=""_blank"">Офіційна веб-сторінка</a><br>
<u>E-mail:</u> a@geotop.com.ua<br>",,,,,,,
265,"Державне підприємство ""Черкаський науково-дослідний та проектний інститут землеустрою""","м. Черкаси, вул. Смілянська, 118",49.423737,32.040844,"<div align=""center""><b>Державне підприємство ""Черкаський науково-дослідний та проектний інститут землеустрою""</b></div>
<div align=""center""><i>Контакти</i></div>
<u>Поштовий індекс:</u> 18008<br>
<u>Адреса:</u> м. Черкаси, вул. Смілянська, 118<br>
<u>Телефони:</u>(0472) 63-77-42, (0472) 63-77-26, (0472) 63-78-49<br>",,,,,,,
266,Базилєвс,"м.Черкаси, вул.Руднєва, 41",49.408086,32.046751,"<div align=""center""><b>Базилєвс</b></div>
<div align=""center""><i>Контакти</i></div>
<u>Поштовий індекс:</u> 18018<br>
<u>Адреса:</u> м.Черкаси, вул.Руднєва, буд.41, кв.26<br>",,,,,,,
267,Товарна біржа агропромислового комплексу центральних областей України,"м. Черкаси, вул. Смілянська, 131",49.416680,32.033611,"<div align=""center""><b>Товарна біржа агропромислового комплексу центральних областей України</b></div>
<div align=""center""><i>Контакти</i></div>
<u>Поштовий індекс:</u> 18000<br>
<u>Адреса:</u>м. Черкаси, вул. Смілянська, 131<br>
<u>Телефони:</u>(0472)63-24-90<br>
<a href=""http://agrobirga.ck.ua/"" target=""_blank"">Офіційна веб-сторінка</a><br>
<u>E-mail:</u> tovagrobirga@gmail.com<br>",,,,,,,
268,Земельне бюро,"м. Черкаси, вул. Волкова, 101",49.429333,32.092236,"<div align=""center""><b>Земельне бюро</b></div>
<div align=""center""><i>Контакти</i></div>
<u>Поштовий індекс:</u> 18000<br>
<u>Адреса:</u>м. Черкаси, вул. Волкова, 101, кв. 62<br>
<u>Телефони:</u>(0472) 54-69-69, 38-49-79, 38-49-69 <br>
<a href=""http://zb.ck.ua/"" target=""_blank"">Офіційна веб-сторінка</a><br>
<u>E-mail:</u> mail@zb.ck.ua <br>",,,,,,,
269,"Комунальне підприємство ""Земля"" Черкаської міської ради","м. Черкаси, вул. Благовісна, 227",49.439902,32.058430,"<div align=""center""><b>Комунальне підприємство ""Земля"" Черкаської міської ради</b></div>
<div align=""center""><i>Контакти</i></div>
<u>Поштовий індекс:</u> 18002<br>
<u>Адреса:</u>м. Черкаси, вул. Благовісна, 227<br>",,,,,,,
270,Контакт-Сервіс,"м. Черкаси, вул. Кірова, 60",49.445657,32.054638,"<div align=""center""><b>Контакт-Сервіс</b></div>
<div align=""center""><i>Контакти</i></div>
<u>Поштовий індекс:</u> 18002<br>
<u>Адреса:</u>м. Черкаси, вул. Кірова, 60<br>",,,,,,,
271,ТЕКС ,"м. Черкаси, вулиця Сержанта Жужоми, 6",49.447045,32.074329,"<div align=""center""><b>ТЕКС </b></div>
<div align=""center""><i>Контакти</i></div>
<u>Поштовий індекс:</u> 18021<br>
<u>Адреса:</u>м. Черкаси, вулиця Сержанта Жужоми, 6<br>
<u>Телефони:</u>(0472)45-65-81<br>
<a href=""www.teks.co.ua/geodezia.shtml"" target=""_blank"">Офіційна веб-сторінка</a><br>
<u>E-mail:</u> teks-ua@mail.ru <br>",,,,,,,
272,Абрис,"м. Черкаси, вул. В`ячеслава Чорновола, 267",49.402071,32.048745,"<div align=""center""><b>Абрис</b></div>
<div align=""center""><i>Контакти</i></div>
<u>Поштовий індекс:</u> 18000<br>
<u>Адреса:</u>м. Черкаси, вул. В`ячеслава Чорновола, 267, офіс 27<br>
<u>Телефони:</u>+38(0472) 64-15-15, 56-43-17, 56-08-15 <br>
<a href=""www.teks.co.ua/geodezia.shtml"" target=""_blank"">Офіційна веб-сторінка</a><br>
<u>E-mail:</u> teks-ua@mail.ru <br>",,,,,,,
273,Жовтеь 2000,"м. Черкаси, вул. Сумгаїтська, 17",49.436941,32.019747,"<div align=""center""><b>Жовтень 2000</b></div>
<div align=""center""><i>Контакти</i></div>
<u>Поштовий індекс:</u> 18000<br>
<u>Адреса:</u>м. Черкаси, вул. Сумгаїтська, 17<br>
<u>Телефони:</u>++38 (0472) 55-29-26<br>",,,,,,,
274,"Державне підприємство ""Миколаївський науково-дослідний та проектний інститут землеустрою""","м. Миколаїв, вул. Миру, 34",46.926472,31.983059,"<div align=""center""><b>Державне підприємство ""Миколаївський науково-дослідний та проектний інститут землеустрою""</b></div>
<div align=""center""><i>Контакти</i></div>
<u>Поштовий індекс:</u> 54034<br>
<u>Адреса:</u> м. Миколаїв, вул. Миру, 34<br>
<u>Телефони:</u>(0512)21-20-58<br>",,,,,,,
275,ГІЛЬДІЯ ІНЖИНІРИНГ,"м. Миколаїв, просп. Леніна, 93",46.965893,31.997766,"<div align=""center""><b>Гільдія Інжиніринг</b></div>
<div align=""center""><i>Контакти</i></div>
<u>Адреса:</u> м. Миколаїв, просп. Леніна, 93, Бізнес-центр ""ДОРМАШИНА""<br>
<u>Телефони:</u> (051)271-04-90<br>
<a href=""http://geotop.com.ua/index_ua.php"" target=""_blank"">Офіційна веб-сторінка</a><br>
<u>E-mail:</u> a@geotop.com.ua<br>",,,,,,,
276,Терра-Юг,"м. Миколаїв, Велика Морська вул., 143",46.969403,32.012268,"<div align=""center""><b>Терра-Юг</b></div>
<div align=""center""><i>Контакти</i></div>
<u>Поштовий індекс:</u> 54001<br>
<u>Адреса:</u> м. Миколаїв, Велика Морська вул., 143<br>
<u>Телефони:</u> +380 (98) 573-08-73, +380 (50) 988-41-08, +380 (67) 440-10-26<br>
<a href=""http:// terra-yug.com"" target=""_blank"">Офіційна веб-сторінка</a><br>",,,,,,,
277,НОМО,"м. Южноукраїнськ, Коммунистическая, 5",47.823421,31.179398,"<div align=""center""><b>НОМО</b></div>
<div align=""center""><i>Контакти</i></div>
<u>Поштовий індекс:</u> 55000<br>
<u>Адреса:</u>Миколаївська область, м. Южноукраїнськ, Коммунистическая, 5, кв. 101<br>",,,,,,,
278,Підприємство Бізнес-Експерт,"м. Миколаїв, просп. Леніна, 177",46.963888,32.016964,"<div align=""center""><b>Підприємство Бізнес-Експерт</b></div>
<div align=""center""><i>Контакти</i></div>
<u>Поштовий індекс:</u> 54008<br>
<u>Адреса:</u>м. Миколаїв, просп. Леніна, 177, кв. 52<br>",,,,,,,
279,Консалтингова фірма Снейл,"м. Миколаїв, Велика Морська вул., 45",46.973781,31.984637,"<div align=""center""><b>Консалтингова фірма Снейл</b></div>
<div align=""center""><i>Контакти</i></div>
<u>Поштовий індекс:</u> 54030<br>
<u>Адреса:</u>м. Миколаїв, Велика Морська вул., 45<br>",,,,,,,
280,Гео-сервіс,"м. Миколаїв, вул. Лягіна, 4",46.974820,31.992691,"<div align=""center""><b>Гео-сервіс</b></div>
<div align=""center""><i>Контакти</i></div>
<u>Поштовий індекс:</u> 54001<br>
<u>Адреса:</u> м. Миколаїв, вул. Лягіна, 4, оф. 409<br>
<u>Телефони:</u> +38 0512 228106<br>",,,,,,,
281,Будспецпроект-плюс,"м. Миколаїв, вул. Кірова, 220",46.972391,32.074384,"<div align=""center""><b>Будспецпроект-плюс</b></div>
<div align=""center""><i>Контакти</i></div>
<u>Поштовий індекс:</u> 54031<br>
<u>Адреса:</u> м. Миколаїв, вул. Кірова, 220<br>",,,,,,,
282,"Універсальна біржа ""Номінал""","м. Миколаїв, Мала Морська вул., 51",46.960156,31.993830,"<div align=""center""><b>Універсальна біржа ""Номінал""</b></div>
<div align=""center""><i>Контакти</i></div>
<u>Поштовий індекс:</u> 54000<br>
<u>Адреса:</u> м. Миколаїв, Мала Морська вул., 51<br>",,,,,,,
283,Чорноморська Товарна біржа агропромислового комплексу,"м. Миколаїв, Московська вул., 54А",46.963466,31.990613,"<div align=""center""><b>Чорноморська Товарна біржа агропромислового комплексу</b></div>
<div align=""center""><i>Контакти</i></div>
<u>Поштовий індекс:</u> 54017<br>
<u>Адреса:</u> м. Миколаїв, Московська вул., 54А<br>",,,,,,,
284,Континент-Плюс,"м.Богуслав, вул. Івана Франка",49.541958,30.866493,"<div align=""center""><b>Континент-Плюс</b></div>
<div align=""center""><i>Контакти</i></div>
<u>Поштовий індекс:</u> 09700<br>
<u>Адреса:</u> Київська область, Богуславський район, м.Богуслав, вул. Івана Франка, 6<br>",,,,,,,
285,Земсервіс груп,"м.Бориспіль, вул. Лермонтова, 13",50.350038,30.946762,"<div align=""center""><b>Земсервіс груп</b></div>
<div align=""center""><i>Контакти</i></div>
<u>Поштовий індекс:</u> 08300<br>
<u>Адреса:</u> Київська область, м.Бориспіль, вул. Лермонтова, 13<br>",,,,,,,
286,"Комунальне підприємство Броварської міської ради ""Бровариінвестбуд""","м.Бровари, вул. Гагаріна, 15",50.511125,30.792044,"<div align=""center""><b>Комунальне підприємство Броварської міської ради ""Бровариінвестбуд""</b></div>
<div align=""center""><i>Контакти</i></div>
<u>Поштовий індекс:</u> 07400<br>
<u>Адреса:</u> Київська область, м.Бровари, вул. Гагаріна, 15<br>",,,,,,,
287,Баришівський районний центр нерухомості,"смт.Баришівка, вул.Жовтнева, 29",50.353704,31.316694,"<div align=""center""><b>Баришівський районний центр нерухомості</b></div>
<div align=""center""><i>Контакти</i></div>
<u>Поштовий індекс:</u> 07500<br>
<u>Адреса:</u> Київська область, Баришівський район, смт.Баришівка, вул.Жовтнева,буд.29<br>",,,,,,,
288,Нео-Бізальянс,"смт.Баришівка, пров.Липняцький, 1",50.353910,31.320889,"<div align=""center""><b>Нео-Бізальянс</b></div>
<div align=""center""><i>Контакти</i></div>
<u>Поштовий індекс:</u> 07500<br>
<u>Адреса:</u> Київська область, Баришівський район, смт.Баришівка, пров.Липняцький, б. 1<br>",,,,,,,
289,Центр перспективного проектування та ринку земель,"м. Богуслав, вул.Миколаївська, буд. 25",49.547959,30.876010,"<div align=""center""><b>Центр перспективного проектування та ринку земель</b></div>
<div align=""center""><i>Контакти</i></div>
<u>Поштовий індекс:</u> 09701<br>
<u>Адреса:</u> Київська область, Богуславський район, м.Богуслав, вул.Миколаївська, буд. 25, кв. 37<br>",,,,,,,
290,ЗемЮРКонсалтинг,"м.Вишгород, вул. Набережна, 7",50.584792,30.497072,"<div align=""center""><b>ЗемЮРКонсалтинг</b></div>
<div align=""center""><i>Контакти</i></div>
<u>Поштовий індекс:</u> 09701<br>
<u>Адреса:</u> Київська область, Вишгородський район, м.Вишгород, вул. Набережна, б.7, кв. 204<br>
<u>Телефони:</u>+380 93801-80-08, +380 95795-49-20<br>",,,,,,,
291,"Державне підприємство ""Кримський науково-дослідний та проектний інститут землеустрою""","АР Крим, м. Сімферополь, вул. Кечкеметська, 114",44.975241,34.120889,"<div align=""center""><b>Державне підприємство ""Кримський науково-дослідний та проектний інститут землеустрою""</b></div>
<div align=""center""><i>Контакти</i></div>
<u>Поштовий індекс:</u> 95038<br>
<u>Адреса:</u>АР Крим, м. Сімферополь, вул. Кечкеметська, 114<br>
<u>Телефони:</u> (0652) 222476, (0652) 222476<br>",,,,,,,
292,Оазис,"АР Крим, м. Сімферополь, вул. Толстого, 33",44.951850,34.089052,"<div align=""center""><b>Оазис</b></div>
<div align=""center""><i>Контакти</i></div>
<u>Адреса:</u>АР Крим, м. Сімферополь, вул. Толстого, 33<br>
<u>Телефони:</u> +38(0652)456536, +7(978)7127377<br>
<a href=""http://oazis-crimea.ucoz.ru/"" target=""_blank"">Офіційна веб-сторінка</a><br>
<u>E-mail:</u> oazisber@yandex.ru<br>",,,,,,,
293,Геотоп,"АР Крим, м. Євпаторія, вул. Демишева, 11",45.194202,33.372365,"<div align=""center""><b>Геотоп</b></div>
<div align=""center""><i>Контакти</i></div>
<u>Адреса:</u>АР Крим, м. Євпаторія, вул. Демишева, 11<br>
<u>Телефони:</u> +38(095)0615058<br>",,,,,,,
294,Триалис,"АР Крим, м. Сімферополь, вул. Воровского, 3",44.951006,34.107774,"<div align=""center""><b>Триалис</b></div>
<div align=""center""><i>Контакти</i></div>
<u>Адреса:</u>АР Крим, м. Сімферополь, вул. Воровского, 3<br>
<u>Телефони:</u> +38(066)2617408<br>
<a href=""http://trialis.com.ua/"" target=""_blank"">Офіційна веб-сторінка</a><br>
<u>E-mail:</u> 0662617408@mail.ru<br>",,,,,,,
295,"Проектно-вишукувальний інститут ""КрымГИИНТИЗ""","АР Крим, м. Ялта, Червоноармійський перевулок, 42",44.486546,34.145566,"<div align=""center""><b>Проектно-вишукувальний інститут ""КрымГИИНТИЗ""</b></div>
<div align=""center""><i>Контакти</i></div>
<u>Поштовий індекс:</u> 98607<br>
<u>Адреса:</u>АР Крим, м. Ялта, Червоноармійський перевулок, 42<br>
<u>Телефони:</u> +38 0654 261178<br>
<u>E-mail:</u> yalta@giintiz.crimea.ua<br>",,,,,,,
296,ГІЛЬДІЯ ІНЖИНІРИНГ,"АР Крим, м. Ялта, вул. Робоча, 32",44.507501,34.161921,"<div align=""center""><b>Гільдія Інжиніринг</b></div>
<div align=""center""><i>Контакти</i></div>
<u>Адреса:</u>АР Крим, м. Ялта, вул. Робоча, 32<br>
<u>Телефони:</u> +38(097)5724657<br>
<a href=""http://geotop.com.ua/index_ua.php"" target=""_blank"">Офіційна веб-сторінка</a><br>
<u>E-mail:</u> a@geotop.com.ua<br>",,,,,,,
297,КерчьГаз,"АР Крим, м. Керч, вул. Чкалова, 141",45.349377,36.439377,"<div align=""center""><b>КерчьГаз</b></div>
<div align=""center""><i>Контакти</i></div>
<u>Поштовий індекс:</u> 98300<br>
<u>Адреса:</u>АР Крим, м. Керч, вул. Чкалова, 141<br>
<u>Телефони:</u> +38 06561 21553 <br>",,,,,,,
298,НедраПроект,"АР Крим, м. Сімферополь, вул. Мате Залки, 23",44.949799,34.132459,"<div align=""center""><b>НедраПроект</b></div>
<div align=""center""><i>Контакти</i></div>
<u>Поштовий індекс:</u> 295053<br>
<u>Адреса:</u> АР Крим, м. Сімферополь, вул. Мате Залки, 23<br>
<u>Телефони:</u> +7 978 7551242, +7 3652 7551242<br>
<a href=""http://nedraproject.com/"" target=""_blank"">Офіційна веб-сторінка</a><br>
<u>E-mail:</u> contact@nedraproject.com<br>",,,,,,,
299,Екоземпроект,"АР Крим, м. Сімферополь, вул. Карла Маркса, 40",44.954991,34.092286,"<div align=""center""><b>Екоземпроект</b></div>
<div align=""center""><i>Контакти</i></div>
<u>Поштовий індекс:</u> 295006<br>
<u>Адреса:</u>АР Крим, м. Сімферополь, вул. Карла Маркса, 40<br>
<u>Телефони:</u> +7 3652 601951<br>",,,,,,,
300,Кримська будівельна компанія,"АР Крим, м. Ялта, вул. Гоголя, 20",44.489982,34.156361,"<div align=""center""><b>Кримська будівельна компанія</b></div>
<div align=""center""><i>Контакти</i></div>
<u>Поштовий індекс:</u> 298635<br>
<u>Адреса:</u> АР Крим, м. Ялта, вул. Гоголя, 20<br>
<u>Телефони:</u> +7 3654 234284<br>
<a href=""http://kck-ltd.com.ua/"" target=""_blank"">Офіційна веб-сторінка</a><br>",,,,,,,
